Raw acceleration counts   (Format v01.20 with 13 text lines)
Record of American Canyon Earthquake of Sun Aug 24, 2014 10:20 UTC
Hypocenter: 38.21550 -122.31167 H= 11km Mw=6.0, Md=5.9(NC), Ml=5.6(NC)
Origin: 2014/08/24 10:20:44 UTC (NCSN)
Statn No: 08-060674 Code:NC-C032   NCSN  McCall Dr Benicia
Coords: 38.0825 -122.1576  Site Geology:
Recorder: GSR-IA18  s/n ? ( ? Chns of   ? at Sta) Sensor: GeoSIG-AC63      
Rcrd start time: 2014/08/24 10:20:18.157 UTC (Q=5) RcrdId: (see comment)
Sta Chan   ?: 90 Deg (Rcrdr Chan  ?) Location:
Raw record length =  181.000 sec, Uncor max =    351785 counts, at  35.135 sec.
Processed: 2015/04/01 16:46:25 UTC (NCSN)
No filtering!
Values used when parameter of data value is unknown/unspecified:  -999, -999.000
 100 Integer-header values follow on  10 lines, Format = (10I8)
       0       1      50     120       1    -999    -999   60674    -999    -999
       8       8    -999       8    -999       1    -999    -999       4    -999
    -999    -999    -999    -999    -999    -999    -999    -999    -999     551
       3    -999    -999    -999      24      24    -999    -999    -999    2014
     236       8      24      10      20       5       5    -999    -999    -999
    -999     400    -999      90    -999    -999    -999    -999    -999    -999
    -999    -999    -999    -999    -999    -999    -999    -999    -999    -999
    -999    -999    -999    -999       1       0    -999    -999    -999    -999
    -999    -999    -999    -999    -999    -999    -999    -999    -999    -999
    -999    -999    -999    -999    -999    -999    -999    -999    -999    -999
 100 Real-header values follow on  20 lines, Format =(5F15.6)
      38.082508    -122.157593      76.000000    -999.000000    -999.000000
    -999.000000    -999.000000    -999.000000    -999.000000      38.215500
    -122.311667      11.250000       6.020000    -999.000000       5.610000
    -999.000000      20.005118     137.664396    -999.000000    -999.000000
    -999.000000       1.324547      11.100000      30.000000     151.000000
      80.000000    -999.000000    -999.000000    -999.000000      18.156710
    -999.000000       0.000000    -999.000000       0.005000     181.000000
    -999.000000    -999.000000    -999.000000    -999.000000     100.000000
       0.700000       3.333300       9.999900       3.000000       1.136305
    -999.000000       1.000000    -999.000000    -999.000000    -999.000000
    -999.000000    -999.000000    -999.000000    -999.000000    -999.000000
    -999.000000    -999.000000    -999.000000    -999.000000    -999.000000
    -999.000000       5.000000     181.000000  351785.000000      35.135000
      -8.685497    -999.000000    -999.000000    -999.000000    -999.000000
    -999.000000    -999.000000    -999.000000    -999.000000    -999.000000
    -999.000000    -999.000000    -999.000000    -999.000000    -999.000000
    -999.000000    -999.000000    -999.000000    -999.000000    -999.000000
    -999.000000    -999.000000    -999.000000    -999.000000    -999.000000
    -999.000000    -999.000000    -999.000000    -999.000000    -999.000000
    -999.000000    -999.000000    -999.000000    -999.000000    -999.000000
   2 Comment line(s) follow, each starting with a |
| RcrdId: NC.72282711.NC.C032.HNE.01
|<SCNL>C032.HNE.NC.01    <AUTH> 2015/03/01 16:46:25.000
   36200 raw accel.   pts, approx  181 secs, units=counts (50),Format=(10I8)
[...]
       1     -48     -29      -8     -21      -5     -41     -38      -1      -7
     -26     -12      -7      -4     -14     -44       8     -42     -82      15
     -25     -61      -2      -6     -24      -1     -23     -47       1     -18
     -24       7     -17     -10     -20      -8      19     -21     -44     -32
     -18     -12     -25     -37     -26     -21      -9      -9     -31     -35
     -17     -13     -36     -20      12      -3     -53     -20     -20     -64
     -18     -39      -7      -1     -59     -10     -12     -10     -10      10
      21     -24     -14     -25       8     -16     -23      34     -42     -33
     -13     -39      -3      -9      20      -3     -19      14     -25      -2
     -19     -50      -4      17      -5     -51     -34     -24     -26     -16
     -22     -23     -36     -27      -6       2     -15       3       4     -38
      13      30       5      19       4      -8     -31     -12      13     -14
      -2      -7      -2      20      -9     -12       6       3      -2     -23
     -29      -2      -5     -19     -29     -26      -4      -8      -5      -1
     -13     -18      11      -4     -35      -3      -4     -34     -33       2
     -10      -1      26      -1     -15       0      21      -1      15       8
     -22      33       9     -26       8       0     -25     -30     -33     -21
       1     -34     -44     -17     -54     -43      12     -24     -39       2
     -17      -5      -5     -32      -4     -28     -15      18      -4     -10
     -28     -37     -15      -1     -10      18      21      -1       3      -7
      -6     -27       0      -1     -41      29      41      -2      -1       8
     -25     -70     -39      -6      -7     -29       0      29       1      32
      39     -21     -36     -16     -29     -44     -49     -24     -24     -32
      21       0     -18      16      15      -7      -2      35       8       7
     -14     -56       2      13     -12     -16     -14      -7     -32     -45
     -31      -9       0      -8      -4     -23     -22      -5     -26     -10
     -21     -33     -17     -11      23      25       3     -35     -10       4
     -18     -10     -60       4      30     -10      35     -23     -37       9
      12      -3     -38       0      24      -2      18       6     -25     -19
      -6       2     -27      -8       0     -35      -8       3     -23     -17
      29      11      -7       0     -24     -20     -11       3     -18      -5
      13     -21     -13      22      23      -6       1     -22     -32     -18
     -24      22      49      63      84     122     208     324     474     608
     776    1002    1175    1298    1393    1420    1340    1180    1015     815
     593     500     521     684    1132    1818    2593    3493    4399    5109
    5617    5788    5544    4894    3892    2548    1049    -309   -1421   -2056
   -2149   -1614    -456    1108    2956    4855    6573    8034    9198    9776
    9777    9386    8731    8079    7428    7003    6916    7088    7588    8201
    8848    9450    9801    9755    9200    8099    6596    4920    3071    1231
    -239   -1228   -1739   -1824   -1728   -1675   -1781   -2433   -3908   -6310
   -9785  -14010  -18593  -23060  -26835  -29665  -31226  -31354  -30299  -28393
  -25935  -23337  -21186  -19883  -19358  -19592  -20461  -21583  -22733  -23282
  -22634  -20520  -16915  -12281   -7035   -1601    3878    9336   14422   18956
   22443   24485   25289   25207   24601   23878   23595   23882   24948   27170
   30327   33968   37124   39035   39398   37871   34585   29571   22958   15490
    8037    1361   -3705   -6474   -6960   -5665   -3537   -1712   -1167   -2614
   -6204  -11523  -17543  -23142  -27394  -29854  -30693  -30044  -28179  -25188
  -20991  -15831  -10000   -4140     818    3953    4743    3044   -1154   -7278
  -14242  -21015  -26947  -31296  -33432  -33285  -30913  -26705  -21397  -15692
  -10163   -5179   -1088    1874    3699    4584    5060    5948    8119   11683
   16080   20700   24885   28251   30812   32694   33778   33964   33119   30876
   27253   22468   16868   11221    6332    2875    1174    1103    2170    3621
    4656    4775    4043    2610     927    -456   -1242    -866     793    3449
    6471    8830    9635    8278    4705    -840   -7695  -14931  -21562  -26854
  -30502  -32368  -32659  -31496  -29067  -25839  -22226  -18500  -14793  -11114
   -7479   -4060   -1008    1514    3495    5044    6301    7405    8559    9917
   11583   13759   16288   19051   21590   23203   23543   22338   20003   17010
   13806   10931    8403    6285    4660    3578    3148    3453    4433    5768
    6931    7174    6070    3577    -363   -5425  -10974  -16455  -21251  -25175
  -28315  -30805  -33096  -35238  -37054  -38339  -38688  -37933  -36055  -33188
  -29795  -26179  -22396  -18618  -14915  -11349   -8063   -4922   -1777    1466
    5214    9423   13592   17430   20693   23322   25612   27977   30481   33222
   36075   38810   41266   43055   44050   44075   43335   42140   40544   38816
   36899   34647   31971   28730   24932   20467   15361   10023    4951     704
   -2215   -3617   -3884   -3507   -2995   -2872   -3103   -3607   -4424   -5525
   -6901   -8540  -10388  -12528  -15078  -17688  -19823  -21083  -21251  -20231
  -18181  -15500  -12361   -8974   -5697   -3099   -1601   -1338   -2447   -4498
   -7067   -9726  -11860  -13162  -13246  -11937   -9365   -5814   -1704    2576
    6606   10054   12715   14475   15385   15637   15408   14889   14161   13192
   12021   10680    9304    8187    7551    7373    7271    6656    5123    2458
   -1252   -5752  -10868  -16240  -21326  -25553  -28509  -30112  -30543  -30171
  -29309  -28042  -26444  -24559  -22366  -19867  -17061  -14029  -11088   -8571
   -6660   -5496   -4645   -3426   -1365    1981    6401   11106   15245   18219
   19800   20163   19765   18766   17172   15018   12559   10186    8211    6905
    6161    5922    6234    7042    8340    9752   10560   10138    8161    4645
      34   -4915   -9680  -13891  -17210  -19484  -20580  -20692  -20047  -18663
  -16588  -13852  -10764   -7726   -5152   -3302   -2075   -1475   -1264   -1108
    -930    -463     584    2274    4386    6523    8184    8944    8742    7741
    6281    4698    3312    2466    2283    2597    3089    3716    4584    5772
    7573   10230   13800   18188   23116   28035   32278   35245   36307   35012
   31279   25526   18455   11111    4422   -1221   -5613   -9031  -11819  -14072
  -15788  -16872  -17037  -16070  -14313  -12087   -9837   -7947   -6448   -5523
   -5300   -5857   -7221   -9368  -11968  -14397  -16249  -17162  -16931  -15630
  -13421  -10650   -7887   -5452   -3371   -1738    -424     805    2121    3500
    4866    6278    7525    8675    9810   10529   10688   10192    8945    7225
    5303    3313    1241   -1123   -3822   -6814   -9894  -12652  -14968  -16728
  -17811  -18246  -18077  -17233  -15565  -13270  -10560   -7704   -4990   -2430
    -108    2143    4486    6656    8344    9234    9267    8747    8027    7471
    7337    7809    8780   10014   11381   12496   13126   13097   12237   10647
    8556    6229    3861    1721      47    -899    -907     140    2121    4531
    7004    9004    9800    8899    6213    1998   -3500   -9865  -16511  -22822
  -28159  -32084  -34453  -35270  -34710  -33140  -30761  -27736  -24314  -20769
  -17477  -14539  -11834   -9373   -7142   -5085   -3221   -1712    -472     804
    2342    4634    7901   11906   16279   20323   23385   24996   24963   23655
   21645   19407   17139   14682   11984    9343    7268    6220    6458    8084
   10872   14324   18041   21655   24779   27458   29897   32079   33918   34994
   34857   33428   31015   28220   25478   23168   21289   19566   17911   15893
   13199    9642    5103    -107   -6084  -13093  -21314  -30599  -40464  -49981
  -57582  -63032  -65806  -65801  -64309  -61221  -56888  -51257  -44213  -36200
  -27269  -18305   -9439   -1019    6221   12165   16989   20530   23031   25140
   26313   26936   27126   26421   24303   20124   14744    8317     680   -7337
  -15366  -23319  -31054  -38354  -44405  -48761  -50837  -49687  -45090  -36985
  -25637  -11105    6129   25668   47503   70655   94470  117752  139388  158776
  175131  188505  198569  205445  208928  207802  201611  189320  169306  141193
  105799   63468   15675  -35936  -91353 -147143 -200007 -247708 -286589 -315332
 -332523 -338678 -335224 -323758 -305993 -282243 -254859 -225423 -195456 -165942
 -137530 -108826  -78921  -50552  -23169    2899   26373   47321   64905   78679
   88622   95771  100713  102893  101787   97559   91803   84289   75487   67534
   61224   58374   59418   65798   77978   94245  114363  136789  159770  182237
  203190  220520  234768  245143  251027  252330  246511  236609  220180  197628
  173190  144016  112352   78653   42756    5594  -34515  -75526 -116590 -157214
 -195897 -231465 -262236 -288349 -308648 -323114 -333344 -338271 -336753 -327905
 -312859 -293910 -272540 -250072 -225687 -198057 -166731 -132642  -96532  -59280
  -21641   16783   54000   89965  125500  157570  184406  206347  223743  235549
  240246  239306  232509  219752  202869  181368  157431  132900  108515   86382
   66058   48278   33913   22349   12726    4728   -2734  -10659  -16432  -22075
  -26769  -28447  -28807  -25691  -21458  -17315  -13283  -11229  -10892  -12386
  -14749  -18172  -22134  -25370  -28222  -30515  -31823  -31698  -30971  -30090
  -28656  -27891  -27446  -27622  -28967  -30073  -31659  -32378  -32052  -31581
  -30058  -28988  -27600  -25980  -23478  -18868  -13269   -6597    -680    4128
    7729    8985    8201    5138     275   -5874  -13398  -21562  -29484  -36476
  -41872  -44980  -45045  -41477  -34406  -24498  -11858    2387   16733   30507
   42530   51902   58331   61682   62414   60993   57393   52231   46005   38996
   32185   26050   20885   17334   15449   14771   15184   16122   16678   16665
   15723   14047   11966    9704    8077    6884    6013    5428    4435    2646
    -211   -3690   -7944  -13591  -20262  -28070  -37006  -46588  -56156  -65368
  -73771  -80451  -85584  -88673  -90043  -89834  -87012  -82357  -75252  -65675
  -54512  -42149  -30071  -18608   -8498     143    7766   14458   21024   27287
   33693   40002   45495   50678   55198   58847   62366   65982   69239   72040
   74207   75264   74787   72758   69869   66041   60175   52543   43904   34167
   24378   15316    7353    1295   -3174   -6165   -7647   -8426   -8952   -9479
  -10441  -12290  -15370  -19464  -24408  -29755  -34783  -38836  -40887  -40720
  -38299  -33850  -28582  -23528  -19694  -17642  -17431  -18963  -21657  -25185
  -29313  -33917  -38773  -43004  -46242  -48085  -48024  -45818  -41254  -34791
  -26860  -18483  -10593   -3737    1097    3555    3861    3020     419   -2915
   -4641   -6060   -5920   -3014    1573    8055   15969   24742   34058   43679
   53558   63985   74919   86300   98417  110988  123955  137222  150461  163412
  175688  186968  197178  206348  214301  220988  226101  229017  229358  226656
  220935  211726  198411  180924  159060  133223  103745   71889   38935    5191
  -28887  -63167  -97159 -129920 -160759 -189852 -217788 -243343 -264974 -283802
 -299610 -312139 -323291 -332496 -339748 -346085 -350311 -351785 -351141 -348236
 -342249 -333485 -321359 -304724 -284095 -259266 -230785 -198852 -164083 -126483
  -86594  -47004   -5934   33384   70439  107858  141213  172130  200246  224331
  245393  261979  276394  288134  296630  303546  308242  310325  310473  308817
  304575  297495  288026  276958  263988  249893  235593  220236  204752  189732
  174207  158746  142956  125455  106557   85016   60394   33962    5809  -23662
  -54038  -84040 -112414 -138708 -163339 -186957 -208922 -228506 -245849 -261694
 -274897 -284910 -292509 -297427 -299897 -300374 -298406 -294639 -289944 -283764
 -276327 -267525 -257410 -245457 -231238 -215170 -196268 -175263 -153544 -130198
 -104228  -76156  -46443  -15413   15968   47421   78931  109898  140022  168288
  194147  217784  237664  253604  265957  274688  281072  285344  287384  286844
  283168  276672  266971  253963  238530  220935  201793  181246  159405  137691
  115691   92868   70155   47564   25558    4799  -14464  -31617  -46842  -60454
  -72359  -81976  -89978  -97372 -103614 -109592 -115765 -122072 -129503 -137296
 -145038 -153487 -161774 -169300 -175987 -181238 -184847 -186572 -186652 -184826
 -180569 -174388 -166433 -156451 -143380 -127748 -110056  -88355  -63566  -37220
   -9900   17332   43498   67344   88558  106626  121720  133384  140948  145960
  148292  148013  147030  145477  143478  141725  140277  139031  137615  136623
  135450  133503  130953  126536  121044  114719  106544   97197   86638   74679
   61405   46987   32047   16409     359  -15468  -30904  -45616  -59332  -71394
  -81389  -89548  -95498  -99551 -101848 -101641  -99939  -96162  -91076  -86410
  -81415  -77444  -74199  -71823  -70415  -68679  -67259  -65077  -62451  -59460
  -55298  -50537  -44809  -38096  -30613  -23161  -15791   -8724   -2475    3574
    9445   15114   20550   25887   31088   35701   40105   44559   48730   52621
   55953   58937   61573   63608   65237   66330   67028   66920   65855   63594
   60276   55971   50119   43267   35560   27447   19026   10055    1065   -8058
  -17213  -25038  -30800  -34848  -36965  -36970  -34593  -30977  -26907  -21985
  -17662  -14371  -12411  -12619  -14771  -18263  -22501  -27209  -31302  -34011
  -36016  -36553  -35040  -32740  -28537  -22933  -16887   -9064   -1227    5851
   13348   20673   27227   33166   38116   41993   44591   45348   44982   43533
   41292   39155   36851   34729   32629   30157   27595   24289   20414   15935
   10671    5466     208   -4709   -8777  -11857  -13998  -15749  -17081  -18016
  -18286  -17716  -16273  -13873  -11128   -8302   -5424   -2799    -670     821
    1534    1437     416   -1989   -5913  -11130  -17523  -24784  -32255  -39530
  -46224  -51715  -55395  -56921  -56511  -54203  -50254  -45033  -38828  -32296
  -25627  -18909  -12298   -5753     538    6334   11473   15515   18458   20367
   21016   20889   20323   19642   19060   18553   18427   18476   18498   18249
   17376   15707   13119    9841    5670     479   -5433  -12086  -19227  -26379
  -33145  -39154  -44186  -47919  -50442  -51735  -51560  -50328  -48330  -45702
  -42312  -38523  -34072  -28345  -22446  -16051   -8734   -1158    6450   13342
   19258   23994   27440   29950   31728   33191   34611   36298   38620   41527
   44907   48477   51819   54723   56713   57592   57520   56657   55331   53347
   50598   47589   44068   39613   34423   28623   22186   14973    7234    -851
   -9055  -16915  -24058  -29890  -34396  -37495  -39187  -39695  -38923  -37119
  -34506  -31308  -27783  -24079  -20164  -15914  -11563   -7100   -2588    1703
    5930    9788   13103   16115   18679   20708   21986   22513   22409   21809
   20820   19258   17415   15149   12541   10084    7580    5014    2327    -592
   -3975   -7805  -12024  -16683  -21454  -26340  -31012  -35257  -38986  -41839
  -43742  -44604  -44344  -42907  -40462  -36771  -31931  -26621  -20861  -15139
   -9810   -4978    -903    2821    6145    9177   12284   15229   18060   20691
   22991   24784   25885   26633   26909   26700   26284   25450   24180   22656
   20878   19011   17210   15680   14736   14009   13138   12251   10753    8185
    4934     985   -3447   -7746  -11540  -14559  -16650  -17712  -17973  -17498
  -16233  -14349  -11620   -7895   -3441    1814    7834   14514   21484   28232
   35311   42097   47969   53382   57562   60489   62011   61638   59646   55774
   50434   43998   36757   29364   21794   14204    6781    -419   -7568  -14662
  -21460  -28380  -35122  -41308  -47035  -51942  -56133  -59793  -62990  -65851
  -68365  -70543  -72121  -72853  -72629  -71401  -69402  -66714  -63352  -59717
  -55921  -51855  -47510  -43045  -38561  -34080  -29886  -25882  -22146  -18630
  -15023  -11454   -7930   -4496   -1247    1487    3475    4768    5248    5071
    4595    3945    3194    2710    2550    2536    2561    2406    1936     783
