Raw acceleration counts   (Format v01.20 with 13 text lines)
Record of American Canyon Earthquake of Sun Aug 24, 2014 10:20 UTC
Hypocenter: 38.21550 -122.31167 H= 11km Mw=6.0, Md=5.9(NC), Ml=5.6(NC)
Origin: 2014/08/24 10:20:44 UTC (NCSN)
Statn No: 08-060689 Code:NC-C039   NCSN  Semillon Dr Fremont
Coords: 37.4671 -121.9116  Site Geology:
Recorder: GSR-IA18  s/n ? ( ? Chns of   ? at Sta) Sensor: GeoSIG-AC63      
Rcrd start time: 2014/08/24 10:20:29.113 UTC (Q=5) RcrdId: (see comment)
Sta Chan   ?: 90 Deg (Rcrdr Chan  ?) Location:
Raw record length =  181.000 sec, Uncor max =     13009 counts, at  54.460 sec.
Processed: 2015/04/01 16:46:27 UTC (NCSN)
No filtering!
Values used when parameter of data value is unknown/unspecified:  -999, -999.000
 100 Integer-header values follow on  10 lines, Format = (10I8)
       0       1      50     120       1    -999    -999   60689    -999    -999
       8       8    -999       8    -999       1    -999    -999       4    -999
    -999    -999    -999    -999    -999    -999    -999    -999    -999     551
       3    -999    -999    -999      24      24    -999    -999    -999    2014
     236       8      24      10      20       5       5    -999    -999    -999
    -999     400    -999      90    -999    -999    -999    -999    -999    -999
    -999    -999    -999    -999    -999    -999    -999    -999    -999    -999
    -999    -999    -999    -999       1       0    -999    -999    -999    -999
    -999    -999    -999    -999    -999    -999    -999    -999    -999    -999
    -999    -999    -999    -999    -999    -999    -999    -999    -999    -999
 100 Real-header values follow on  20 lines, Format =(5F15.6)
      37.467072    -121.911598      27.000000    -999.000000    -999.000000
    -999.000000    -999.000000    -999.000000    -999.000000      38.215500
    -122.311667      11.250000       6.020000    -999.000000       5.610000
    -999.000000      90.332590     157.113590    -999.000000    -999.000000
    -999.000000       1.324547      11.100000      30.000000     151.000000
      80.000000    -999.000000    -999.000000    -999.000000      29.113040
    -999.000000       0.000000    -999.000000       0.005000     181.000000
    -999.000000    -999.000000    -999.000000    -999.000000     100.000000
       0.700000       3.333300       9.999900       3.000000       1.136305
    -999.000000       1.000000    -999.000000    -999.000000    -999.000000
    -999.000000    -999.000000    -999.000000    -999.000000    -999.000000
    -999.000000    -999.000000    -999.000000    -999.000000    -999.000000
    -999.000000       5.000000     181.000000   13009.000000      54.460000
       1.646657    -999.000000    -999.000000    -999.000000    -999.000000
    -999.000000    -999.000000    -999.000000    -999.000000    -999.000000
    -999.000000    -999.000000    -999.000000    -999.000000    -999.000000
    -999.000000    -999.000000    -999.000000    -999.000000    -999.000000
    -999.000000    -999.000000    -999.000000    -999.000000    -999.000000
    -999.000000    -999.000000    -999.000000    -999.000000    -999.000000
    -999.000000    -999.000000    -999.000000    -999.000000    -999.000000
   2 Comment line(s) follow, each starting with a |
| RcrdId: NC.72282711.NC.C039.HNE.01
|<SCNL>C039.HNE.NC.01    <AUTH> 2015/03/01 16:46:27.000
   36200 raw accel.   pts, approx  181 secs, units=counts (50),Format=(10I8)
[...]
   -4999   -5505   -5896   -6142   -6226   -6168   -5945   -5578   -5160   -4647
   -4132   -3614   -3123   -2785   -2495   -2295   -2148   -2117   -2198   -2272
   -2448   -2577   -2670   -2800   -2826   -2805   -2690   -2459   -2236   -1918
   -1470   -1012    -526      -4     486     992    1481    1850    2161    2423
    2549    2551    2469    2283    2027    1712    1340     947     587     331
     180     172     285     609    1155    1777    2524    3383    4244    5046
    5834    6495    6986    7385    7637    7760    7648    7341    6964    6407
    5650    4852    3999    2998    1991     961     -46    -948   -1812   -2542
   -3239   -3831   -4283   -4708   -4947   -5171   -5398   -5532   -5628   -5652
   -5725   -5756   -5692   -5605   -5543   -5409   -5111   -4840   -4521   -4118
   -3674   -3182   -2725   -2216   -1724   -1308    -906    -568    -310    -149
     -24      98     102      66      34      20      91     134     242     471
     690     965    1250    1480    1618    1664    1702    1548    1290     995
     567     118    -424    -969   -1527   -2171   -2723   -3284   -3866   -4337
   -4863   -5342   -5680   -6043   -6322   -6566   -6790   -6935   -7043   -7068
   -7013   -6929   -6782   -6504   -6178   -5746   -5268   -4806   -4216   -3652
   -3150   -2618   -2151   -1796   -1494   -1226   -1040    -963    -934    -930
    -994   -1083   -1166   -1230   -1323   -1405   -1431   -1432   -1382   -1340
   -1252   -1174   -1128   -1073   -1151   -1236   -1361   -1627   -1855   -2152
   -2527   -2833   -3087   -3188   -3205   -3152   -2898   -2544   -2118   -1587
    -966    -379     197     825    1389    1942    2418    2827    3278    3591
    3822    4118    4421    4723    5055    5461    5833    6141    6463    6713
    6863    6937    6927    6772    6538    6251    5842    5382    4909    4458
    3997    3544    3140    2743    2380    2103    1858    1644    1535    1491
    1603    1832    2110    2484    2905    3343    3807    4327    4769    5164
    5505    5704    5814    5821    5753    5536    5202    4828    4349    3868
    3342    2780    2355    1914    1520    1270    1065     959     909     965
    1052    1077    1127    1161    1134    1024     906     762     526     300
     104    -100    -255    -342    -392    -393    -314    -163     -10     185
     370     470     558     509     248     -86    -525   -1144   -1805   -2543
   -3300   -3988   -4750   -5431   -5993   -6553   -7048   -7472   -7875   -8220
   -8469   -8645   -8786   -8878   -8889   -8856   -8780   -8675   -8512   -8325
   -8159   -7939   -7731   -7489   -7218   -6984   -6641   -6280   -5921   -5502
   -5080   -4647   -4267   -3857   -3445   -3112   -2774   -2472   -2207   -1931
   -1637   -1343   -1068    -849    -605    -320     -95     134     420     736
    1081    1496    1939    2408    2934    3434    3918    4398    4813    5170
    5506    5797    6053    6278    6505    6727    6872    7015    7132    7198
    7228    7172    7070    6887    6616    6332    5952    5448    4931    4359
    3709    3027    2275    1487     756      23    -724   -1345   -1878   -2354
   -2745   -3049   -3294   -3561   -3726   -3786   -3834   -3839   -3791   -3683
   -3543   -3305   -3032   -2782   -2429   -2122   -1865   -1587   -1437   -1326
   -1248   -1213   -1177   -1194   -1210   -1211   -1237   -1222   -1127   -1030
    -844    -603    -365     -29     303     682    1139    1621    2073    2466
    2836    3085    3272    3398    3450    3497    3469    3422    3381    3351
    3346    3343    3386    3441    3527    3665    3876    4109    4347    4670
    4979    5253    5524    5739    5936    6147    6331    6498    6700    6889
    7111    7428    7741    8019    8296    8517    8685    8778    8771    8717
    8517    8209    7843    7392    6899    6291    5653    4992    4223    3430
    2562    1675     841     -26    -927   -1815   -2639   -3399   -4112   -4734
   -5245   -5655   -5900   -5982   -6014   -5898   -5616   -5292   -4850   -4338
   -3798   -3169   -2582   -1992   -1384    -888    -463    -106     175     326
     364     299     141     -40    -375    -714    -976   -1370   -1732   -2028
   -2358   -2634   -2817   -2965   -3106   -3221   -3337   -3439   -3542   -3655
   -3730   -3910   -4125   -4211   -4401   -4632   -4777   -5008   -5224   -5312
   -5352   -5365   -5276   -5072   -4821   -4479   -4048   -3633   -3207   -2739
   -2294   -1915   -1558   -1228   -1018    -896    -841    -927   -1174   -1517
   -1889   -2341   -2902   -3450   -3945   -4438   -4890   -5266   -5547   -5741
   -5873   -5984   -6068   -6160   -6321   -6493   -6747   -7060   -7415   -7850
   -8260   -8675   -9112   -9538   -9900  -10177  -10385  -10512  -10481  -10296
  -10022   -9601   -9129   -8608   -7986   -7392   -6787   -6197   -5709   -5194
   -4711   -4341   -3997   -3688   -3446   -3300   -3206   -3109   -3026   -2973
   -2958   -2952   -2925   -2884   -2827   -2697   -2534   -2369   -2162   -1928
   -1626   -1273    -947    -563    -165     196     596     961    1369    1717
    1973    2322    2606    2906    3202    3470    3823    4084    4307    4456
    4549    4619    4558    4448    4255    3970    3602    3188    2727    2187
    1633    1042     417    -179    -736   -1253   -1684   -2063   -2356   -2529
   -2659   -2687   -2642   -2599   -2521   -2446   -2386   -2300   -2226   -2168
   -2054   -1865   -1680   -1464   -1171    -855    -471     -76     315     751
    1160    1587    2015    2404    2789    3119    3342    3506    3597    3561
    3449    3247    2971    2633    2268    1940    1608    1317    1131     964
     807     743     703     712     803     946    1143    1312    1544    1801
    2021    2321    2562    2800    3056    3194    3322    3432    3440    3438
    3443    3388    3368    3355    3370    3465    3545    3711    3921    4110
    4350    4582    4838    5083    5231    5447    5646    5688    5692    5659
    5596    5456    5283    5104    4847    4640    4416    4175    3921    3569
    3232    2828    2322    1794    1263     688      36    -578   -1174   -1780
   -2303   -2741   -3122   -3419   -3713   -3962   -4033   -4090   -4087   -3989
   -3926   -3811   -3678   -3573   -3537   -3558   -3605   -3696   -3820   -3932
   -4032   -4191   -4250   -4278   -4326   -4260   -4164   -4109   -4092   -4004
   -3957   -3959   -3935   -4039   -4177   -4331   -4477   -4625   -4853   -5007
   -5107   -5155   -5164   -5166   -5020   -4784   -4494   -4110   -3709   -3211
   -2617   -2043   -1438    -802    -146     508    1138    1735    2304    2923
    3473    3953    4419    4803    5150    5429    5647    5795    5881    5940
    5961    5965    5968    6022    5992    5994    6137    6212    6356    6581
    6823    7096    7386    7739    8071    8392    8670    8934    9160    9262
    9409    9524    9562    9639    9716    9767    9864   10016   10158   10297
   10448   10575   10623   10630   10603   10551   10500   10464   10475   10481
   10605   10794   10937   11141   11346   11526   11633   11659   11584   11328
   11019   10614   10056    9424    8753    8062    7317    6619    5960    5319
    4825    4327    3886    3587    3284    3112    3021    2893    2815    2729
    2688    2670    2561    2517    2501    2469    2486    2499    2565    2620
    2611    2666    2747    2734    2679    2600    2427    2172    1882    1582
    1199     804     428      12    -334    -642    -914   -1101   -1230   -1300
   -1333   -1317   -1279   -1320   -1345   -1349   -1503   -1664   -1821   -2051
   -2329   -2627   -2885   -3121   -3335   -3587   -3804   -3939   -4127   -4305
   -4418   -4575   -4703   -4784   -4882   -4894   -4899   -4917   -4871   -4870
   -4893   -4896   -4916   -4944   -5009   -5117   -5232   -5380   -5580   -5789
   -5981   -6224   -6543   -6878   -7168   -7445   -7772   -8072   -8320   -8616
   -8906   -9184   -9515   -9799  -10110  -10449  -10764  -11151  -11464  -11747
  -12079  -12302  -12504  -12700  -12789  -12828  -12802  -12723  -12645  -12511
  -12402  -12381  -12315  -12269  -12307  -12303  -12340  -12433  -12423  -12432
  -12472  -12415  -12298  -12093  -11898  -11624  -11198  -10803  -10294   -9660
   -9014   -8360   -7703   -7055   -6470   -5861   -5278   -4785   -4251   -3717
   -3215   -2648   -2094   -1595   -1073    -579    -166     152     468     753
     854     917     905     768     666     459     183     -77    -341    -479
    -608    -714    -678    -577    -418    -168     160     495     870    1268
    1614    2001    2443    2830    3205    3623    3995    4359    4686    4941
    5132    5212    5275    5226    5041    4841    4590    4266    3882    3483
    3029    2542    2074    1597    1170     750     409     185     -46    -136
    -151    -207    -201    -200    -234    -294    -396    -519    -704    -930
   -1113   -1371   -1612   -1782   -1989   -2119   -2230   -2268   -2260   -2285
   -2265   -2271   -2282   -2285   -2312   -2309   -2269   -2260   -2221   -2161
   -2096   -2026   -2006   -1910   -1834   -1837   -1752   -1714   -1748   -1706
   -1744   -1847   -1889   -1996   -2152   -2328   -2526   -2712   -2930   -3110
   -3304   -3566   -3750   -3969   -4226   -4463   -4732   -4985   -5261   -5570
   -5899   -6209   -6599   -7043   -7400   -7862   -8357   -8738   -9174   -9600
   -9889  -10115  -10271  -10297  -10227  -10080   -9835   -9512   -9125   -8737
   -8342   -7902   -7530   -7168   -6803   -6512   -6172   -5827   -5489   -5118
   -4752   -4341   -3975   -3606   -3178   -2795   -2457   -2101   -1707   -1348
    -989    -612    -231     176     535     887    1239    1524    1799    2045
    2272    2489    2641    2763    2843    2903    2916    2899    2955    2960
    2921    2907    2858    2801    2742    2662    2598    2529    2463    2394
    2332    2367    2401    2478    2628    2743    2949    3195    3447    3770
    4085    4467    4887    5247    5671    6097    6429    6721    6959    7182
    7377    7537    7669    7766    7871    7962    8077    8131    8145    8198
    8134    8069    7989    7848    7789    7663    7482    7316    7132    6926
    6659    6422    6160    5824    5568    5305    5033    4826    4664    4584
    4432    4343    4340    4256    4235    4214    4201    4188    4200    4257
    4256    4313    4446    4590    4744    4969    5254    5538    5854    6238
    6657    7123    7631    8075    8554    9053    9496    9931   10327   10676
   10916   11042   11112   11109   11007   10876   10747   10537   10319   10107
    9824    9554    9277    8958    8662    8366    8074    7795    7561    7379
    7213    7102    7066    7069    7060    7008    6997    6974    6888    6819
    6673    6493    6322    6098    5855    5601    5407    5227    5073    4969
    4849    4814    4842    4886    4952    5017    5128    5214    5242    5294
    5338    5358    5373    5405    5449    5441    5442    5471    5488    5533
    5581    5664    5782    5846    5858    5892    5936    5910    5817    5710
    5567    5318    4998    4678    4311    3856    3352    2847    2324    1769
    1186     521    -187    -889   -1639   -2452   -3326   -4181   -5036   -5955
   -6834   -7690   -8518   -9296  -10052  -10707  -11239  -11748  -12215  -12540
  -12799  -12982  -13009  -12966  -12854  -12622  -12310  -11930  -11531  -11097
  -10581  -10108   -9653   -9136   -8636   -8152   -7685   -7287   -6933   -6583
   -6247   -5988   -5758   -5505   -5299   -5148   -4965   -4771   -4625   -4407
   -4193   -3985   -3708   -3464   -3133   -2841   -2594   -2236   -1965   -1678
   -1305    -950    -582    -185     236     650    1119    1553    1926    2320
    2724    3103    3358    3595    3836    3983    4054    4060    3955    3769
    3555    3199    2797    2390    1864    1361     884     375     -90    -497
    -867   -1189   -1461   -1712   -2002   -2355   -2681   -3050   -3511   -4022
   -4621   -5212   -5827   -6534   -7182   -7786   -8392   -8897   -9339   -9675
   -9896  -10087  -10111  -10066  -10011   -9807   -9549   -9328   -9048   -8658
   -8301   -7929   -7507   -7098   -6669   -6281   -5904   -5536   -5202   -4903
   -4699   -4460   -4206   -4040   -3873   -3635   -3367   -3129   -2821   -2489
   -2203   -1877   -1595   -1344   -1135    -998    -884    -869    -935   -1028
   -1179   -1405   -1680   -1998   -2382   -2767   -3162   -3613   -4011   -4329
   -4649   -4883   -4956   -5024   -5041   -4921   -4778   -4574   -4300   -4015
   -3680   -3303   -2923   -2460   -1959   -1453    -901    -370     185     709
    1169    1644    2061    2358    2608    2842    2989    3036    3019    2964
    2834    2621    2412    2205    1985    1810    1681    1607    1578    1604
    1695    1812    2009    2205    2427    2670    2846    3051    3174    3235
    3269    3232    3143    2959    2816    2646    2379    2115    1810    1479
    1193     910     600     313      13    -305    -631    -988   -1340   -1702
   -2049   -2413   -2766   -2998   -3277   -3517   -3619   -3757   -3831   -3842
   -3834   -3760   -3630   -3394   -3127   -2875   -2553   -2217   -1924   -1604
   -1333   -1082    -847    -717    -543    -422    -342    -241    -190     -68
      45     153     234     290     382     399     442     451     353     246
      99     -57    -236    -491    -744    -954   -1223   -1463   -1625   -1863
   -2068   -2207   -2298   -2298   -2219   -2047   -1762   -1360    -918    -304
     440    1151    1923    2722    3517    4274    5032    5796    6499    7189
    7826    8428    9001    9464    9886   10290   10576   10733   10810   10828
   10758   10593   10314    9998    9684    9259    8836    8436    7970    7521
    7074    6647    6277    5963    5681    5411    5245    5137    5036    4962
    4950    4980    4982    5030    5055    5119    5195    5156    5201    5168
    5048    4971    4813    4685    4516    4304    4109    3891    3716    3522
    3376    3265    3099    2985    2923    2848    2777    2727    2733    2707
    2599    2522    2415    2274    2134    1998    1855    1748    1738    1693
    1729    1856    1995    2184    2338    2506    2691    2867    3015    3117
    3230    3313    3330    3373    3395    3370    3339    3244    3156    3071
    2952    2829    2680    2541    2395    2212    2041    1883    1665    1448
    1251    1045     847     649     507     346     208      83     -56     -97
    -217    -340    -385    -495    -567    -650    -798    -886    -950   -1026
   -1083   -1137   -1157   -1112   -1011    -858    -675    -392     -60     246
     659    1147    1644    2145    2665    3169    3598    4011    4361    4647
    4869    5029    5157    5230    5275    5257    5241    5234    5169    5131
    5058    4948    4878    4745    4640    4582    4424    4240    4071    3877
    3590    3284    2995    2631    2263    1865    1479    1093     685     377
      32    -324    -552    -803   -1111   -1375   -1609   -1878   -2177   -2431
   -2768   -3103   -3400   -3832   -4184   -4531   -4914   -5248   -5601   -5816
   -6033   -6230   -6289   -6311   -6277   -6219   -6053   -5830   -5595   -5253
   -4916   -4559   -4171   -3860   -3568   -3313   -3146   -2975   -2850   -2815
   -2803   -2802   -2853   -2942   -3025   -3149   -3260   -3390   -3512   -3556
   -3611   -3609   -3604   -3595   -3519   -3471   -3461   -3441   -3417   -3493
   -3554   -3565   -3635   -3622   -3651   -3699   -3646   -3691   -3682   -3603
   -3606   -3547   -3435   -3339   -3235   -3115   -2971   -2829   -2714   -2560
   -2364   -2230   -2130   -2081   -2039   -2025   -2154   -2256   -2448   -2742
   -2959   -3284   -3585   -3798   -4123   -4388   -4548   -4734   -4821   -4816
   -4819   -4773   -4695   -4585   -4439   -4329   -4208   -4099   -4023   -3958
   -3933   -3874   -3869   -3871   -3830   -3886   -3863   -3825   -3828   -3756
   -3707   -3599   -3456   -3305   -3112   -3000   -2866   -2695   -2591   -2498
   -2455   -2439   -2457   -2538   -2594   -2718   -2858   -2962   -3131   -3262
   -3337   -3386   -3428   -3470   -3407   -3339   -3272   -3106   -2975   -2818
   -2584   -2401   -2225   -2051   -1929   -1825   -1747   -1715   -1651   -1568
