Raw acceleration counts   (Format v01.20 with 13 text lines)
Record of American Canyon Earthquake of Sun Aug 24, 2014 10:20 UTC
Hypocenter: 38.21550 -122.31167 H= 11km Mw=6.0, Md=5.9(NC), Ml=5.6(NC)
Origin: 2014/08/24 10:20:44 UTC (NCSN)
Statn No: 08-060680 Code:NC-C034   NCSN  Goodrich Wy Fremont
Coords: 37.5728 -121.9633  Site Geology:
Recorder: GSR-IA18  s/n ? ( ? Chns of   ? at Sta) Sensor: GeoSIG-AC63      
Rcrd start time: 2014/08/24 10:20:27.259 UTC (Q=5) RcrdId: (see comment)
Sta Chan   ?: 90 Deg (Rcrdr Chan  ?) Location:
Raw record length =  181.000 sec, Uncor max =     32422 counts, at  51.940 sec.
Processed: 2015/04/01 16:46:26 UTC (NCSN)
No filtering!
Values used when parameter of data value is unknown/unspecified:  -999, -999.000
 100 Integer-header values follow on  10 lines, Format = (10I8)
       0       1      50     120       1    -999    -999   60680    -999    -999
       8       8    -999       8    -999       1    -999    -999       4    -999
    -999    -999    -999    -999    -999    -999    -999    -999    -999     551
       3    -999    -999    -999      24      24    -999    -999    -999    2014
     236       8      24      10      20       5       5    -999    -999    -999
    -999     400    -999      90    -999    -999    -999    -999    -999    -999
    -999    -999    -999    -999    -999    -999    -999    -999    -999    -999
    -999    -999    -999    -999       1       0    -999    -999    -999    -999
    -999    -999    -999    -999    -999    -999    -999    -999    -999    -999
    -999    -999    -999    -999    -999    -999    -999    -999    -999    -999
 100 Real-header values follow on  20 lines, Format =(5F15.6)
      37.572800    -121.963318      15.000000    -999.000000    -999.000000
    -999.000000    -999.000000    -999.000000    -999.000000      38.215500
    -122.311667      11.250000       6.020000    -999.000000       5.610000
    -999.000000      77.727736     156.842459    -999.000000    -999.000000
    -999.000000       1.324547      11.100000      30.000000     151.000000
      80.000000    -999.000000    -999.000000    -999.000000      27.259380
    -999.000000       0.000000    -999.000000       0.005000     181.000000
    -999.000000    -999.000000    -999.000000    -999.000000     100.000000
       0.700000       3.333300       9.999900       3.000000       1.136305
    -999.000000       1.000000    -999.000000    -999.000000    -999.000000
    -999.000000    -999.000000    -999.000000    -999.000000    -999.000000
    -999.000000    -999.000000    -999.000000    -999.000000    -999.000000
    -999.000000       5.000000     181.000000   32422.000000      51.940000
      -2.241575    -999.000000    -999.000000    -999.000000    -999.000000
    -999.000000    -999.000000    -999.000000    -999.000000    -999.000000
    -999.000000    -999.000000    -999.000000    -999.000000    -999.000000
    -999.000000    -999.000000    -999.000000    -999.000000    -999.000000
    -999.000000    -999.000000    -999.000000    -999.000000    -999.000000
    -999.000000    -999.000000    -999.000000    -999.000000    -999.000000
    -999.000000    -999.000000    -999.000000    -999.000000    -999.000000
   2 Comment line(s) follow, each starting with a |
| RcrdId: NC.72282711.NC.C034.HNE.01
|<SCNL>C034.HNE.NC.01    <AUTH> 2015/03/01 16:46:26.000
   36200 raw accel.   pts, approx  181 secs, units=counts (50),Format=(10I8)
[...]
    1545    2399    2992    3316    3404    3130    2654    1856     727    -476
   -1771   -3119   -4426   -5586   -6593   -7461   -8066   -8492   -8746   -8769
   -8602   -8273   -7926   -7549   -7131   -6780   -6460   -6224   -6018   -5796
   -5588   -5325   -4934   -4296   -3479   -2486   -1338    -163    1092    2358
    3488    4393    5116    5666    6033    6298    6422    6404    6274    6019
    5581    4974    4237    3401    2608    1838    1201     801     484     297
     245     321     482     597     730     782     735     690     563     378
     185     -13    -219    -398    -539    -723    -930   -1139   -1378   -1629
   -1840   -1987   -2096   -2154   -2187   -2239   -2308   -2482   -2773   -3148
   -3633   -4170   -4761   -5364   -5841   -6219   -6434   -6406   -6192   -5743
   -5071   -4252   -3273   -2100    -872     323    1548    2740    3784    4623
    5300    5780    6026    6113    6080    5953    5738    5530    5387    5194
    5044    5040    5089    5228    5399    5549    5718    5818    5843    5740
    5553    5324    4954    4504    3935    3257    2448    1414     287    -873
   -2014   -3085   -4020   -4775   -5393   -5887   -6455   -7028   -7586   -8382
   -9280  -10215  -11241  -12243  -13043  -13592  -13994  -14168  -14035  -13601
  -12966  -12160  -11207  -10201   -9098   -7906   -6629   -5297   -3924   -2579
   -1291     -47    1196    2503    3742    4980    6271    7584    8958   10283
   11575   12826   13895   14726   15318   15624   15586   15341   14965   14459
   13915   13325   12719   12049   11274   10552    9708    8667    7654    6622
    5550    4532    3535    2557    1626     701    -205   -1162   -2125   -3037
   -3977   -4876   -5733   -6518   -7227   -7877   -8508   -9162   -9744  -10347
  -10983  -11602  -12218  -12808  -13330  -13773  -14147  -14376  -14465  -14404
  -14185  -13880  -13473  -12971  -12454  -11903  -11319  -10855  -10468  -10089
   -9867   -9688   -9407   -9116   -8688   -8005   -7175   -6172   -4887   -3455
   -1918    -282    1267    2783    4210    5488    6619    7616    8574    9403
   10189   10910   11506   12104   12616   13007   13374   13679   13949   14267
   14553   14810   15109   15384   15587   15824   16083   16308   16515   16718
   17001   17246   17488   17769   17943   18048   18026   17842   17490   17003
   16399   15584   14731   13821   12767   11716   10681    9627    8567    7561
    6553    5574    4636    3633    2632    1589     522    -604   -1823   -2981
   -4153   -5330   -6510   -7657   -8752   -9868  -10853  -11815  -12755  -13475
  -14037  -14520  -14900  -15140  -15327  -15494  -15601  -15652  -15649  -15540
  -15347  -15113  -14887  -14746  -14677  -14699  -14797  -14840  -14788  -14723
  -14476  -14059  -13589  -12928  -12208  -11460  -10705   -9915   -9080   -8254
   -7259   -6209   -5055   -3745   -2334    -781     762    2321    3861    5329
    6735    8063    9276   10334   11312   12119   12788   13385   13838   14183
   14447   14701   14899   15069   15277   15374   15419   15470   15363   15088
   14694   14149   13413   12555   11677   10720    9696    8816    8049    7301
    6693    6152    5593    5042    4486    3936    3355    2794    2321    1888
    1522    1118     644     188    -392   -1032   -1770   -2641   -3431   -4281
   -5095   -5740   -6352   -6830   -7213   -7502   -7689   -7931   -8133   -8253
   -8281   -8203   -8159   -8147   -8086   -7992   -8005   -8052   -8033   -8087
   -8115   -8138   -8236   -8331   -8465   -8621   -8857   -9136   -9350   -9537
   -9684   -9679   -9532   -9349   -9007   -8505   -7995   -7430   -6727   -6106
   -5685   -5225   -4781   -4444   -4122   -3794   -3370   -2883   -2347   -1799
   -1299    -737    -151     468    1114    1870    2802    3694    4702    5757
    6631    7435    8074    8500    8724    8775    8745    8612    8514    8446
    8332    8321    8223    7951    7649    7308    6934    6449    6018    5793
    5565    5376    5257    5129    5046    4971    4957    4989    5050    5234
    5366    5433    5515    5408    5091    4687    4128    3419    2731    2036
    1351     839     460     208     141     236     458     787    1244    1807
    2416    3045    3699    4324    4846    5291    5631    5806    5895    5929
    5902    5835    5790    5690    5471    5264    4837    4176    3491    2594
    1573     598    -428   -1446   -2397   -3216   -3835   -4380   -4805   -5011
   -5075   -5043   -4858   -4580   -4337   -4147   -4053   -4139   -4458   -4863
   -5370   -6096   -6867   -7655   -8489   -9240   -9947  -10615  -11112  -11507
  -11759  -11861  -11942  -12003  -12121  -12267  -12461  -12768  -13118  -13519
  -13993  -14472  -14898  -15281  -15650  -15973  -16203  -16392  -16452  -16324
  -16110  -15757  -15203  -14496  -13655  -12684  -11598  -10443   -9312   -8119
   -6871   -5599   -4228   -2860   -1467    -120    1108    2361    3490    4402
    5210    5906    6530    7076    7550    7993    8381    8725    8955    9115
    9179    9094    8894    8580    8268    7949    7751    7712    7774    8033
    8381    8718    9059    9349    9488    9575    9654    9735    9886   10075
   10372   10572   10615   10623   10462   10147    9724    9283    8856    8437
    8083    7768    7382    6928    6443    5785    5045    4137    3056    1969
     705    -571   -1806   -2995   -3990   -4888   -5605   -6137   -6513   -6727
   -6811   -6745   -6614   -6340   -5911   -5462   -4995   -4471   -3982   -3616
   -3394   -3353   -3411   -3566   -3773   -3927   -4007   -3916   -3586   -3041
   -2358   -1451    -399     616    1642    2461    3037    3463    3629    3537
    3285    3002    2626    2252    1971    1719    1528    1356    1253    1160
    1034     929     707     329    -130    -628   -1196   -1852   -2520   -3276
   -4079   -4871   -5744   -6618   -7484   -8273   -8930   -9519   -9904  -10097
  -10191  -10139   -9898   -9591   -9287   -8896   -8630   -8491   -8366   -8417
   -8590   -8812   -9055   -9258   -9352   -9212   -8911   -8464   -7776   -7008
   -6191   -5348   -4589   -3850   -3249   -2737   -2252   -1831   -1324    -779
     -50     913    2012    3305    4678    6193    7744    9235   10698   12000
   13088   13897   14475   14723   14683   14484   13970   13206   12344   11449
   10535    9697    9092    8674    8379    8256    8192    8094    8017    7785
    7437    7114    6776    6449    6133    5886    5691    5504    5334    5210
    5082    4886    4699    4566    4367    4073    3820    3411    2820    2272
    1649     984     383    -192    -719   -1172   -1554   -1948   -2335   -2707
   -3086   -3475   -3906   -4283   -4660   -5019   -5386   -5852   -6285   -6791
   -7383   -7861   -8245   -8631   -8992   -9256   -9381   -9413   -9427   -9387
   -9357   -9238   -9056   -8945   -8767   -8659   -8575   -8489   -8485   -8437
   -8431   -8382   -8282   -8118   -7797   -7393   -6841   -6186   -5480   -4709
   -3912   -3054   -2196   -1366    -501     352    1196    2040    2842    3605
    4374    5167    5894    6618    7312    7894    8529    9157    9717   10299
   10899   11411   11861   12394   12866   13300   13796   14259   14671   15051
   15448   15693   15787   15873   15770   15556   15245   14741   14097   13214
   12172   10935    9491    7935    6268    4588    2884    1235    -384   -1971
   -3469   -4963   -6348   -7610   -8780   -9792  -10593  -11198  -11592  -11739
  -11726  -11563  -11235  -10809  -10326   -9900   -9580   -9269   -9058   -8982
   -8884   -8774   -8672   -8554   -8383   -8112   -7803   -7431   -6906   -6344
   -5756   -5045   -4316   -3604   -2881   -2166   -1481    -853    -271     210
     606     909    1065    1208    1255    1131     933     641     376     107
    -267    -648   -1046   -1441   -1787   -2072   -2249   -2291   -2218   -2047
   -1779   -1434    -989    -531     -56     446     811    1134    1455    1677
    1925    2249    2601    3016    3478    4016    4532    4926    5369    5735
    6001    6320    6566    6837    7202    7543    7889    8286    8686    9018
    9325    9627    9727    9696    9604    9256    8791    8237    7596    6931
    6221    5628    5115    4626    4259    4000    3757    3503    3221    2909
    2578    2217    1870    1512    1148     817     409    -115    -654   -1315
   -2134   -2993   -3966   -5038   -6072   -7077   -8109   -9039   -9882  -10620
  -11227  -11872  -12351  -12751  -13150  -13367  -13566  -13630  -13596  -13541
  -13352  -13082  -12748  -12513  -12287  -12026  -11829  -11600  -11387  -11166
  -10934  -10716  -10412  -10086   -9745   -9233   -8688   -8180   -7545   -6809
   -6038   -5251   -4310   -3241   -2160   -1003     160    1281    2298    3230
    4117    4969    5784    6547    7288    7915    8430    8787    8972    9033
    8931    8675    8334    8030    7726    7436    7273    7256    7337    7458
    7627    7815    7972    8030    7934    7742    7531    7237    6802    6398
    5945    5394    4987    4618    4266    3993    3760    3587    3387    3253
    3143    2998    2960    2947    2922    2916    2882    2764    2520    2241
    1832    1216     576     -97    -776   -1457   -2181   -2822   -3375   -3873
   -4273   -4568   -4752   -4833   -4847   -4727   -4523   -4269   -4001   -3828
   -3647   -3509   -3472   -3448   -3430   -3448   -3492   -3522   -3539   -3565
   -3724   -3936   -4118   -4434   -4917   -5455   -5950   -6512   -7101   -7603
   -8119   -8589   -8937   -9159   -9324   -9464   -9561   -9608   -9594   -9560
   -9437   -9249   -8994   -8623   -8171   -7577   -6929   -6246   -5509   -4794
   -4074   -3472   -3028   -2639   -2319   -2063   -1758   -1381   -1007    -562
    -115     342     855    1317    1796    2284    2759    3276    3822    4339
    4876    5428    5945    6538    7113    7682    8254    8697    9120    9462
    9684    9878    9973    9955    9891    9794    9677    9642    9655    9719
    9934   10210   10517   10859   11139   11264   11265   11206   11024   10716
   10440   10191    9852    9524    9190    8768    8367    8003    7696    7455
    7290    7173    7061    6921    6685    6434    6078    5616    5149    4552
    3835    3053    2151    1074     -38   -1152   -2389   -3580   -4691   -5829
   -6907   -7873   -8812   -9765  -10584  -11324  -12086  -12726  -13317  -13754
  -14003  -14217  -14222  -14200  -14208  -14076  -13935  -13811  -13747  -13728
  -13825  -14026  -14281  -14598  -14821  -15064  -15215  -15165  -14987  -14593
  -14083  -13380  -12513  -11666  -10751   -9794   -8911   -8154   -7436   -6712
   -6122   -5566   -4948   -4414   -3906   -3381   -2954   -2564   -2171   -1808
   -1474   -1108    -634     -93     521    1271    2182    3175    4289    5592
    6952    8397    9907   11415   12878   14243   15576   16828   18012   19121
   20143   21153   22114   22986   23763   24470   25052   25415   25608   25624
   25435   25116   24711   24245   23736   23146   22434   21597   20626   19557
   18403   17203   16099   15024   13956   13083   12308   11513   10776   10022
    9114    8041    6910    5736    4482    3201    1901     584    -723   -2003
   -3333   -4715   -6048   -7330   -8614   -9956  -11302  -12650  -14054  -15502
  -17009  -18548  -20057  -21521  -22974  -24321  -25480  -26565  -27638  -28572
  -29492  -30434  -31057  -31544  -31966  -32238  -32390  -32377  -32422  -32301
  -31966  -31551  -30922  -30168  -29223  -28059  -26764  -25442  -23948  -22273
  -20572  -18765  -17028  -15268  -13583  -12017  -10307   -8718   -7149   -5547
   -4042   -2595   -1258      45    1252    2432    3599    4656    5722    6765
    7735    8615    9416   10218   10873   11402   11914   12288   12611   12864
   13059   13254   13388   13559   13747   13995   14320   14735   15281   15830
   16474   17162   17783   18427   18994   19512   20024   20472   20878   21213
   21517   21750   21893   21958   21869   21690   21444   21097   20630   20097
   19499   18766   18044   17380   16644   15851   15115   14362   13558   12764
   11885   10964    9978    8797    7458    6002    4391    2592     561   -1579
   -3681   -5881   -8051  -10083  -12056  -13853  -15448  -16852  -18115  -19297
  -20328  -21173  -21888  -22464  -22834  -23113  -23251  -23099  -22835  -22462
  -21932  -21316  -20578  -19818  -19022  -18180  -17319  -16310  -15224  -14150
  -13070  -11927  -10852   -9889   -8926   -8069   -7248   -6443   -5682   -4866
   -4032   -3205   -2453   -1774   -1006    -302     275     859    1318    1648
    1898    2097    2180    2132    2064    1948    1807    1552    1265     973
     621     375     157     -17     -44      20     170     440     768    1181
    1711    2281    2950    3726    4629    5591    6507    7462    8415    9252
   10000   10692   11212   11526   11672   11680   11553   11256   10869   10377
    9872    9386    8796    8205    7636    7033    6351    5652    4987    4217
    3310    2326    1342     310    -818   -1842   -2758   -3657   -4318   -4773
   -5138   -5228   -5149   -4950   -4589   -4197   -3696   -3236   -2880   -2489
   -2288   -2277   -2268   -2456   -2824   -3151   -3511   -3798   -3988   -4157
   -4128   -3930   -3598   -3118   -2543   -1858   -1052    -312     346    1017
    1461    1787    2011    2003    1890    1672    1396    1004     517      15
    -442    -749    -953   -1043    -974    -710    -264     258     914    1671
    2310    2916    3564    4206    4799    5258    5709    6148    6501    6871
    7182    7418    7672    7926    8214    8504    8789    9025    9143    9328
    9474    9496    9572    9604    9636    9637    9511    9373    9184    8945
    8623    8228    7871    7566    7193    6774    6481    6154    5832    5570
    5238    4946    4640    4302    4032    3734    3472    3319    3127    2993
    2866    2653    2546    2484    2353    2211    2121    1934    1667    1403
    1030     636     164    -313    -765   -1278   -1716   -2165   -2638   -3095
   -3549   -3958   -4342   -4670   -5008   -5387   -5719   -6071   -6491   -6894
   -7374   -7897   -8450   -9013   -9420   -9812  -10064  -10143  -10181  -10009
   -9734   -9496   -9177   -8679   -8174   -7728   -7297   -6843   -6352   -5951
   -5447   -4811   -4178   -3488   -2750   -2018   -1377    -742    -108     449
     895    1223    1560    1821    1982    2118    2220    2313    2302    2214
    2144    2042    1862    1600    1351    1125     850     600     480     412
     379     442     558     763     969    1175    1478    1831    2224    2646
    3148    3674    4148    4653    5217    5765    6251    6700    7140    7525
    7866    8197    8452    8635    8721    8776    8830    8794    8791    8827
    8792    8795    8817    8772    8672    8444    8056    7514    6776    5828
    4722    3571    2392    1155     -13   -1124   -2220   -3181   -4039   -4776
   -5412   -5951   -6326   -6628   -6861   -6987   -7065   -7142   -7167   -7113
   -7073   -7037   -6941   -6839   -6749   -6595   -6499   -6420   -6236   -6123
   -6002   -5799   -5544   -5202   -4801   -4287   -3674   -2999   -2258   -1468
    -794    -197     419     925    1388    1844    2304    2794    3356    3990
    4540    5133    5755    6221    6619    6978    7235    7367    7449    7452
    7306    7018    6713    6423    5956    5506    5080    4578    4173    3722
    3259    2790    2204    1618    1029     443    -189    -837   -1395   -2027
   -2691   -3269   -3798   -4315   -4823   -5177   -5474   -5801   -6023   -6185
   -6388   -6620   -6810   -6972   -7120   -7199   -7252   -7265   -7187   -7032
   -6870   -6751   -6632   -6529   -6416   -6324   -6201   -6066   -6003   -5842
   -5720   -5647   -5504   -5389   -5267   -5135   -4964   -4716   -4401   -4018
   -3585   -3173   -2765   -2299   -1943   -1695   -1408   -1201   -1063    -834
    -632    -475    -272    -102       3      69     139     161     116      97
     114     162     223     360     584     828    1057    1273    1525    1729
    1894    2039    2181    2376    2579    2829    3067    3291    3472    3544
    3579    3499    3380    3291    3106    2881    2671    2373    1984    1527
     967     371    -160    -644   -1114   -1407   -1526   -1616   -1600   -1488
