Raw acceleration counts   (Format v01.20 with 13 text lines)
Record of American Canyon Earthquake of Sun Aug 24, 2014 10:20 UTC
Hypocenter: 38.21550 -122.31167 H= 11km Mw=6.0, Md=5.9(NC), Ml=5.6(NC)
Origin: 2014/08/24 10:20:44 UTC (NCSN)
Statn No: 08-060667 Code:NC-C031   NCSN  McGee Av Berkeley
Coords: 37.8632 -122.2769  Site Geology:
Recorder: GSR-IA18  s/n ? ( ? Chns of   ? at Sta) Sensor: GeoSIG-AC63      
Rcrd start time: 2014/08/24 10:20:21.188 UTC (Q=5) RcrdId: (see comment)
Sta Chan   ?: 90 Deg (Rcrdr Chan  ?) Location:
Raw record length =  181.000 sec, Uncor max =     65896 counts, at  42.340 sec.
Processed: 2015/04/01 16:46:25 UTC (NCSN)
No filtering!
Values used when parameter of data value is unknown/unspecified:  -999, -999.000
 100 Integer-header values follow on  10 lines, Format = (10I8)
       0       1      50     120       1    -999    -999   60667    -999    -999
       8       8    -999       8    -999       1    -999    -999       4    -999
    -999    -999    -999    -999    -999    -999    -999    -999    -999     551
       3    -999    -999    -999      24      24    -999    -999    -999    2014
     236       8      24      10      20       5       5    -999    -999    -999
    -999     400    -999      90    -999    -999    -999    -999    -999    -999
    -999    -999    -999    -999    -999    -999    -999    -999    -999    -999
    -999    -999    -999    -999       1       0    -999    -999    -999    -999
    -999    -999    -999    -999    -999    -999    -999    -999    -999    -999
    -999    -999    -999    -999    -999    -999    -999    -999    -999    -999
 100 Real-header values follow on  20 lines, Format =(5F15.6)
      37.863220    -122.276932      29.000000    -999.000000    -999.000000
    -999.000000    -999.000000    -999.000000    -999.000000      38.215500
    -122.311667      11.250000       6.020000    -999.000000       5.610000
    -999.000000      39.289677     175.559581    -999.000000    -999.000000
    -999.000000       1.324547      11.100000      30.000000     151.000000
      80.000000    -999.000000    -999.000000    -999.000000      21.187530
    -999.000000       0.000000    -999.000000       0.005000     181.000000
    -999.000000    -999.000000    -999.000000    -999.000000     100.000000
       0.700000       3.333300       9.999900       3.000000       1.136305
    -999.000000       1.000000    -999.000000    -999.000000    -999.000000
    -999.000000    -999.000000    -999.000000    -999.000000    -999.000000
    -999.000000    -999.000000    -999.000000    -999.000000    -999.000000
    -999.000000       5.000000     181.000000   65896.000000      42.340000
       1.776492    -999.000000    -999.000000    -999.000000    -999.000000
    -999.000000    -999.000000    -999.000000    -999.000000    -999.000000
    -999.000000    -999.000000    -999.000000    -999.000000    -999.000000
    -999.000000    -999.000000    -999.000000    -999.000000    -999.000000
    -999.000000    -999.000000    -999.000000    -999.000000    -999.000000
    -999.000000    -999.000000    -999.000000    -999.000000    -999.000000
    -999.000000    -999.000000    -999.000000    -999.000000    -999.000000
   2 Comment line(s) follow, each starting with a |
| RcrdId: NC.72282711.NC.C031.HNE.01
|<SCNL>C031.HNE.NC.01    <AUTH> 2015/03/01 16:46:25.000
   36200 raw accel.   pts, approx  181 secs, units=counts (50),Format=(10I8)
[...]
    -236    -222    -185    -204    -380    -710   -1111   -1515   -1872   -1979
   -1709   -1101    -214     699    1578    2333    2614    2457    2178    2053
    2355    3193    4315    5463    6461    7247    7862    8120    7870    7070
    5859    4491    3014    1529     222    -714   -1360   -2086   -2970   -4067
   -5282   -6229   -6726   -6605   -5964   -5005   -3916   -2982   -2195   -1612
   -1045    -253     652    1544    2232    2800    3333    3789    4146    4299
    4185    3681    2871    1974    1224     819     720     900    1283    1901
    2716    3565    4364    4806    4898    4903    4872    4963    5234    5524
    5660    5469    4851    4000    3230    2764    2619    2742    3150    3768
    4541    5340    6106    6823    7571    8586    9755   10786   11413   11675
   11814   11958   11978   11635   10965    9853    8350    6532    4353    2275
     448   -1198   -2584   -3781   -4664   -5139   -5270   -5183   -5123   -5171
   -5433   -6005   -6868   -8054   -9401  -10774  -12105  -13109  -13749  -14268
  -14936  -15899  -16879  -17752  -18463  -18886  -19099  -19015  -18780  -18379
  -17507  -16105  -14241  -12203  -10104   -8047   -6127   -4430   -3205   -2528
   -2407   -2598   -2842   -2986   -2842   -2390   -1674    -688     668    2329
    3884    5069    5915    6457    6728    6671    6177    5383    4624    4050
    3704    3845    4465    5192    5673    5422    4308    2596     394   -1941
   -4073   -5807   -6803   -7104   -6902   -6405   -5875   -5455   -5353   -5563
   -5994   -6583   -7362   -8449   -9550  -10491  -11250  -11687  -12095  -12588
  -12835  -12614  -11485   -9211   -5981   -1815    2969    7688   11945   15593
   18476   20507   21644   21793   21007   19732   18450   17229   16194   15498
   14969   14647   14732   15235   16296   17690   18978   20267   21412   21855
   21361   19673   16412   11732    5847    -971   -7897  -14413  -20303  -25053
  -28211  -29558  -29159  -27585  -25476  -23262  -21095  -18719  -16057  -13234
  -10329   -7492   -5038   -3229   -2026   -1281    -598     194    1004    2116
    3528    5053    6742    8439   10125   11913   13674   15371   16917   18262
   19446   20341   20842   20837   20436   19746   18706   17391   15831   14330
   13108   12197   12094   12488   12904   13503   13950   14347   14503   13717
   11932    9021    5284    1007   -3794   -8523  -12905  -16914  -20353  -23248
  -25737  -27865  -29423  -30222  -30034  -28753  -26487  -23182  -19317  -15386
  -11588   -8225   -5150   -2666   -1244    -998   -2180   -4492   -7556  -10918
  -14027  -16649  -18443  -19254  -18846  -16635  -12241   -5733    2591   12043
   21645   30127   36245   39952   41186   39714   36233   30968   23979   15710
    6235   -3435  -12199  -19923  -26234  -31226  -35024  -37304  -37975  -36964
  -34401  -30397  -25198  -19451  -14047   -9809   -6600   -4345   -3216   -2509
   -1904   -1398    -746    -384    -367    -146     -15       6     325     656
    1135    1813    2319    3042    4017    4733    5340    5867    6019    6212
    6515    7004    8477   10499   12626   15186   17820   20305   22498   23999
   24596   24042   22522   20377   17752   15023   12164    9270    6633    4112
    1981     374    -862   -1568   -1720    -930     959    3453    6499    9712
   12497   14645   15791   16096   15894   14982   13372   10970    7569    3810
     129   -3311   -5846   -7420   -8032   -7648   -6860   -5833   -4659   -3507
   -2088    -387    1422    3250    4674    5613    6278    6480    6373    6002
    5232    4511    3982    3632    3869    4854    6565    9180   12323   15300
   17574   18663   18497   17340   15701   13879   12122   10530    8949    7424
    5583    3492    1712     273    -820   -1510   -1901   -2079   -1877   -1324
    -677     247    1240    1880    2171    2009    1784    1553    1104     640
    -114   -1146   -2571   -4823   -7550  -10094  -12031  -13221  -13741  -13832
  -13872  -14138  -14556  -14764  -14572  -13950  -13009  -12032  -10969   -9881
   -8913   -7469   -5127   -1999    1721    5389    8504   11004   12815   14062
   14832   15188   15176   14665   13748   12523   10771    8447    5851    2857
    -722   -4558   -8634  -12507  -15642  -18284  -20206  -21281  -21997  -22810
  -23604  -24100  -24901  -26123  -27208  -28437  -29971  -31633  -33595  -35776
  -37987  -40237  -42322  -43565  -43654  -42869  -41132  -38560  -35122  -30351
  -24704  -18580  -11933   -5430     280    5148    8908   11008   12068   13012
   13481   13353   12986   12413   11520   10297    8941    7373    5803    4582
    3686    3358    3402    3596    4148    4815    5655    6754    7827    9104
   10881   12822   14589   16431   17852   18398   18774   18998   18968   18992
   18838   18188   16920   15062   12793   10487    8463    6647    5299    4835
    5442    7740   11464   15670   20003   23604   25662   26294   26049   25545
   25267   25137   24909   24495   23497   22257   21103   19405   16892   14030
   11290    8868    7026    5365    3760    2481     907   -1274   -3747   -6120
   -8313  -10170  -11694  -13286  -14605  -15508  -16435  -17345  -18229  -19050
  -19670  -20527  -21366  -21784  -21635  -19851  -16609  -12718   -8258   -4165
    -698    2697    5423    7505    9188    9730    9705    9172    7444    5283
    2944     544   -1816   -4439   -7017   -9351  -10875  -11041  -10148   -8319
   -5812   -3343   -1179     654    2011    3055    4021    5040    6322    7968
    9914   11979   14000   15865   17224   18033   18574   18621   18248   17262
   15244   12575    9429    6365    3437     419   -1705   -2995   -3653   -3066
   -1426    1318    5200    9702   14589   19392   23470   26180   27176   26214
   22883   17926   11842    4851   -1967   -8668  -14867  -20008  -24510  -28115
  -31044  -33492  -35201  -35915  -35783  -35020  -33055  -30441  -27578  -24324
  -21681  -19808  -18416  -17646  -17283  -17327  -17813  -18863  -20525  -22475
  -24796  -26936  -28438  -29549  -29564  -28570  -26474  -22933  -18589  -13001
   -6794    -945    4745    9920   14592   18639   21735   24005   25297   25647
   25474   25085   24506   23779   22941   22197   21984   21945   21814   21543
   20701   19686   18506   16876   15191   13220   10979    8704    6624    5440
    4802    4682    5512    6790    8556   10784   13404   16477   19319   21386
   22339   22179   20884   18468   15270   11158    6558    1865   -2872   -6923
  -10297  -12782  -13932  -14069  -12919  -10913   -8634   -6188   -4338   -2964
   -1876   -1169    -564    -481   -1157   -2614   -4778   -7086   -9329  -11254
  -12841  -14272  -15415  -16259  -16663  -16744  -16830  -17092  -17450  -17714
  -17848  -17372  -16142  -14443  -12298   -9820   -6767   -3195     340    3684
    6173    7517    8369    8820    9056    9105    8682    8109    7577    7327
    7563    8267    9545   11263   13226   15186   17112   18832   20089   20966
   21433   21624   21401   20649   19431   17443   14763   11636    8277    5254
    2685     453   -1170   -2346   -3003   -2836   -1906    -127    2165    4582
    6971    9011   10481   11419   11928   12198   12622   13208   14063   15022
   15533   15765   15371   14090   12163    9358    5923    2080   -1881   -5637
   -9578  -13617  -17544  -21542  -25394  -28979  -32165  -34532  -36036  -36712
  -36757  -36392  -35605  -34428  -32760  -30532  -27712  -24711  -21984  -19808
  -18529  -17908  -17706  -17796  -17965  -18048  -17778  -17303  -16876  -16424
  -16020  -15742  -15680  -15775  -15833  -15947  -15990  -15837  -15653  -15505
  -15350  -15331  -15786  -16657  -17773  -18827  -19274  -18967  -17384  -14200
   -9643   -3461    3831   11607   19399   26142   31608   35721   38371   40004
   40746   40590   39591   37777   35419   32419   28481   23878   18932   13956
    9583    6394    4498    3569    3303    3392    3334    3242    3266    2945
    2483    2067    1822    2231    3033    4282    5827    6807    7313    7116
    6339    5829    5315    5073    5206    5153    5441    6466    7819    8990
    9829   10053    9371    8256    7143    6079    4659    2522      11   -2678
   -5080   -6801   -8101   -8559   -8098   -6865   -4724   -2274     339    2792
    4458    5468    5781    5506    4674    3013     842   -1637   -4209   -6247
   -7791   -9025   -9601   -9518   -8962   -7976   -6928   -5937   -4913   -4245
   -4013   -4111   -4406   -4455   -4425   -4504   -4759   -5496   -6302   -6966
   -7469   -7334   -6577   -4958   -2322    1118    5510   10332   15184   20202
   25094   29441   32780   34753   35294   34577   33021   30853   27883   24041
   19458   14252    8873    3941    -253   -3442   -5483   -6397   -6148   -5118
   -3621   -1860    -332     650     977     523    -738   -2580   -4781   -7150
   -9446  -11413  -12861  -13925  -14918  -16040  -17437  -18999  -20280  -21067
  -21137  -20398  -19334  -18121  -16977  -16136  -15437  -15062  -14864  -14694
  -14848  -15332  -16206  -17434  -18764  -19873  -20437  -20386  -19765  -18623
  -17003  -15048  -12804  -10224   -7452   -4677   -1968     626    3083    5435
    7732    9765   11163   12045   12601   12922   13143   13096   12791   12337
   11820   11542   11511   11695   12085   12365   12544   12725   12829   12936
   12995   13028   13141   13219   13206   13056   12531   11628   10615    9657
    8888    8321    7948    7763    7530    7149    6589    5892    5285    4796
    4418    4248    4288    4334    4231    3933    3432    2943    2777    3260
    4447    5884    7045    7843    8390    8879    9449    9809    9784    9284
    8277    7105    6116    5479    5042    4716    4345    3531    2173     277
   -1967   -4123   -5809   -6766   -6951   -6703   -6406   -6234   -6303   -6511
   -6948   -7655   -8617  -10001  -11792  -13904  -15926  -17498  -18577  -19325
  -19975  -20544  -20738  -20125  -18736  -16690  -14247  -11895   -9933   -8461
   -7358   -6484   -5798   -5280   -4909   -4591   -4083   -3521   -3133   -2980
   -3134   -3119   -2642   -1661    -243    1305    2929    4448    5862    7387
    8924   10156   10919   11282   11244   11045   10856   10853   11268   11881
   12475   12903   13141   13308   13318   12942   11956   10196    7687    4668
    1311   -2231   -5866   -9474  -12880  -15742  -17674  -18605  -18298  -16843
  -14682  -12150   -9503   -6739   -3883    -988    1774    4091    5594    6068
    5490    4110    2546    1067     -49    -508    -465     -75     358     482
     207    -502   -1624   -2901   -4120   -5206   -5962   -6388   -6552   -6553
   -6668   -6879   -7134   -7364   -7471   -7448   -7195   -6746   -6154   -5574
   -5061   -4458   -3692   -2626   -1222     553    2529    4530    6515    8437
   10519   12565   14525   16455   17957   19009   19489   19261   18250   16215
   13327    9778    5787    1747   -1976   -5101   -7489   -9049   -9919  -10354
  -10682  -11006  -11128  -11011  -10780  -10687  -10972  -11731  -13025  -14952
  -17403  -20162  -22994  -25506  -27525  -29171  -30412  -31246  -31819  -31917
  -31391  -30315  -28669  -26663  -24741  -23140  -21717  -20219  -18348  -16110
  -13952  -12013  -10353   -9026   -7735   -6422   -4805   -2646    -143    2630
    5461    8258   10887   13377   15760   17782   19650   21600   23861   26797
   30669   35376   40642   46309   51940   57070   61278   64317   65896   65857
   64627   62460   59560   56128   52089   47356   42109   36633   31190   25989
   20954   16091   11579    7660    4442    1990     298    -799   -1451   -1852
   -2141   -2423   -2636   -2882   -3049   -3026   -3049   -3044   -3139   -3312
   -3531   -4106   -5221   -7005   -9410  -12248  -15317  -18239  -20717  -22703
  -23984  -24655  -24862  -24443  -23601  -22440  -20920  -19209  -17600  -16304
  -15414  -15143  -15571  -16679  -18295  -20272  -22716  -25443  -28248  -30999
  -33295  -34951  -36103  -36919  -37460  -37663  -37526  -37108  -36532  -35804
  -34761  -33278  -31368  -29120  -26694  -24366  -22124  -19813  -17393  -14957
  -12804  -11132  -10001   -9442   -9436   -9853  -10461  -11080  -11873  -13176
  -14835  -16495  -17637  -17651  -16634  -14720  -11814   -8174   -3863    1146
    6458   11722   16654   21062   24953   28135   30439   31818   32388   32345
   31850   30891   29568   28261   27001   26012   25494   25344   25288   24929
   24513   24058   23471   23270   23673   24522   25425   26156   26461   25769
   23975   21019   17190   13189    9219    5606    2771     649    -841   -1990
   -3385   -5181   -7236   -9092  -10215  -10487   -9820   -8598   -7394   -6143
   -5167   -4908   -4802   -4764   -4870   -4603   -4337   -4215   -3842   -3160
   -1921    -102    2219    5068    8404   12056   15457   18194   20084   21018
   21129   20126   17958   15047   11434    7324    2918   -1651   -6268  -10929
  -15136  -18620  -21294  -22589  -22590  -21796  -20311  -18620  -16852  -14563
  -11927   -9218   -6817   -5427   -5053   -5356   -6563   -8421  -10374  -12469
  -14516  -16508  -18552  -20350  -21987  -23594  -24959  -25942  -26300  -25880
  -25124  -24038  -22507  -21090  -19661  -18132  -17013  -16308  -16098  -16595
  -17411  -18095  -18580  -18595  -18012  -16944  -15127  -12638   -9632   -5991
   -1967    2289    6775   11096   15196   19210   22742   25819   28230   29406
   29696   29308   28201   26480   24393   22467   20826   19467   18587   18194
   17974   17865   18231   19050   20212   21575   22617   23250   23328   22563
   21354   19697   17463   15031   12290    9525    7310    5731    5137    5426
    6161    7367    9002   10754   12127   12977   13311   12715   11333    9316
    6774    4350    1886    -736   -3485   -6457   -9107  -11439  -13566  -15254
  -16364  -16725  -16508  -15879  -15058  -14308  -13824  -13806  -14108  -14649
  -15248  -15577  -15670  -15625  -15580  -15486  -15120  -14337  -13030  -11317
   -9293   -7262   -5272   -3251   -1762   -1014   -1209   -2417   -4245   -6822
  -10043  -13617  -17448  -21069  -24136  -26428  -27647  -27805  -26770  -24250
  -20472  -15525   -9439   -2800    3968   10422   16100   20866   24610   27267
   28769   29083   28419   27127   25492   23810   22224   20736   19209   17549
   15942   14502   13495   13051   13062   13536   14376   15546   17088   18855
   20773   22776   24413   25399   25667   25202   24251   22948   21435   20021
   18730   17377   15791   13568   10577    7003    2900   -1329   -5272   -8740
  -11451  -13640  -15896  -18156  -20316  -22404  -23964  -24963  -25443  -25319
  -24989  -24656  -24179  -23565  -23065  -22708  -22723  -23316  -24070  -24754
  -25064  -24810  -24338  -23861  -23616  -23782  -24105  -24484  -24937  -25175
  -25163  -25015  -24401  -23333  -22009  -20345  -18679  -17106  -15520  -14041
  -12514  -10991   -9535   -8063   -6686   -5401   -4304   -3586   -3250   -3364
   -3890   -4520   -5030   -5185   -4845   -3988   -2630    -846    1245    3415
    5672    8071   10674   13497   16363   18981   20970   22181   22544   22249
   21499   20368   19055   17552   15857   14153   12548   11101    9983    8981
    8056    7436    6908    6616    6762    7195    7922    8899    9976   11187
   12550   13985   15482   16908   18188   19378   20333   20876   20938   20356
   19255   17936   16563   15185   13637   11972   10380    9178    8542    8241
    8187    8239    8259    8090    7563    6820    6156    5904    6334    7583
    9429   11451   13329   14773   15646   15916   15595   14850   13846   12646
   11348   10106    8869    7438    5619    3391     942   -1662   -4330   -6681
   -8568  -10059  -11143  -11999  -12759  -13341  -13631  -13766  -13881  -14017
  -14247  -14308  -14136  -13780  -13397  -13158  -12820  -12371  -11820  -11114
  -10202   -8961   -7437   -5590   -3276    -424    2805    6291    9916   13177
   15767   17538   18224   17914   16847   15196   13105   10687    7883    4573
    1126   -2096   -4767   -6571   -7659   -8437   -9357  -10508  -11893  -13241
  -14167  -14736  -14915  -14942  -15103  -15566  -16385  -17200  -17769  -17901
  -17524  -16712  -15678  -14660  -13736  -13143  -13032  -13346  -14082  -15057
  -15945  -16643  -17082  -17178  -16761  -15808  -14632  -13401  -12164  -10882
