Raw acceleration counts   (Format v01.20 with 13 text lines)
Record of American Canyon Earthquake of Sun Aug 24, 2014 10:20 UTC
Hypocenter: 38.21550 -122.31167 H= 11km Mw=6.0, Md=5.9(NC), Ml=5.6(NC)
Origin: 2014/08/24 10:20:44 UTC (NCSN)
Statn No: 08-060699 Code:NC-C040   NCSN  Flannery Rd San Pablo
Coords: 37.9897 -122.3141  Site Geology:
Recorder: GSR-IA18  s/n ? ( ? Chns of   ? at Sta) Sensor: GeoSIG-AC63      
Rcrd start time: 2014/08/24 10:20:18.938 UTC (Q=5) RcrdId: (see comment)
Sta Chan   ?: 90 Deg (Rcrdr Chan  ?) Location:
Raw record length =  181.000 sec, Uncor max =    117540 counts, at  37.780 sec.
Processed: 2015/04/01 16:46:27 UTC (NCSN)
No filtering!
Values used when parameter of data value is unknown/unspecified:  -999, -999.000
 100 Integer-header values follow on  10 lines, Format = (10I8)
       0       1      50     120       1    -999    -999   60699    -999    -999
       8       8    -999       8    -999       1    -999    -999       4    -999
    -999    -999    -999    -999    -999    -999    -999    -999    -999     551
       3    -999    -999    -999      24      24    -999    -999    -999    2014
     236       8      24      10      20       5       5    -999    -999    -999
    -999     400    -999      90    -999    -999    -999    -999    -999    -999
    -999    -999    -999    -999    -999    -999    -999    -999    -999    -999
    -999    -999    -999    -999       1       0    -999    -999    -999    -999
    -999    -999    -999    -999    -999    -999    -999    -999    -999    -999
    -999    -999    -999    -999    -999    -999    -999    -999    -999    -999
 100 Real-header values follow on  20 lines, Format =(5F15.6)
      37.989658    -122.314095      53.000000    -999.000000    -999.000000
    -999.000000    -999.000000    -999.000000    -999.000000      38.215500
    -122.311667      11.250000       6.020000    -999.000000       5.610000
    -999.000000      25.113380     180.484742    -999.000000    -999.000000
    -999.000000       1.324547      11.100000      30.000000     151.000000
      80.000000    -999.000000    -999.000000    -999.000000      18.938100
    -999.000000       0.000000    -999.000000       0.005000     181.000000
    -999.000000    -999.000000    -999.000000    -999.000000     100.000000
       0.700000       3.333300       9.999900       3.000000       1.136305
    -999.000000       1.000000    -999.000000    -999.000000    -999.000000
    -999.000000    -999.000000    -999.000000    -999.000000    -999.000000
    -999.000000    -999.000000    -999.000000    -999.000000    -999.000000
    -999.000000       5.000000     181.000000  117540.000000      37.780000
      -5.052182    -999.000000    -999.000000    -999.000000    -999.000000
    -999.000000    -999.000000    -999.000000    -999.000000    -999.000000
    -999.000000    -999.000000    -999.000000    -999.000000    -999.000000
    -999.000000    -999.000000    -999.000000    -999.000000    -999.000000
    -999.000000    -999.000000    -999.000000    -999.000000    -999.000000
    -999.000000    -999.000000    -999.000000    -999.000000    -999.000000
    -999.000000    -999.000000    -999.000000    -999.000000    -999.000000
   2 Comment line(s) follow, each starting with a |
| RcrdId: NC.72282711.NC.C040.HNE.01
|<SCNL>C040.HNE.NC.01    <AUTH> 2015/03/01 16:46:27.000
   36200 raw accel.   pts, approx  181 secs, units=counts (50),Format=(10I8)
[...]
     370     358     474     626     634     703     818     777     799     911
     799     689     864     979     883    1012    1382    1362    1066    1054
     891     357     151     362     426     501     998    1424    1508    1608
    1734    1651    1184     555    -232   -1354   -2223   -2663   -2769   -2344
   -1774   -1495   -1519   -1758   -2598   -3915   -4962   -5962   -6963   -7094
   -6380   -5733   -4945   -3889   -3282   -3275   -3432   -3770   -4549   -5305
   -5479   -4749   -3091    -117    3553    6403    7888    7615    5607    2587
     -66   -1629   -1859    -551    1535    4256    7391    9944   11161   10663
    9082    6886    4500    3253    3237    3297    3796    5158    6089    5540
    3865    1709   -1678   -5097   -6840   -7386   -6256   -3870   -1467     677
    2389    3018    2232     195   -2372   -4210   -5458   -6193   -6766   -7840
   -8301   -7740   -5875   -2421    2029    6130    7521    6940    4455     -81
   -3981   -6111   -5920   -3749     162    4416    6834    7482    6883    4745
    1958    -309   -2618   -3775   -3511   -1835    1334    4884    8384   10066
   10253    9303    6626    3217    -854   -5155   -9403  -12612  -13571  -13399
  -12496  -10442   -7766   -5199   -3359   -2180   -1950   -3149   -4544   -5333
   -5432   -4636   -3404   -2221   -1645   -1727   -2374   -3773   -5520   -7422
   -8639   -7622   -4480    -268    4236    8011    9758    9231    7403    5059
    2807    1427    1258    1863    2910    4545    6596    8417    9970   11451
   11909   10751    8434    5246    1789    -705   -1834   -1844    -527    1741
    3968    5340    5693    4866    2652      82   -2007   -3491   -3760   -2534
    -740    1098    2993    4168    3799    2334     899    -393   -1219   -1143
    -543      97     360      52   -1148   -3277   -5568   -7466   -9220  -10476
  -10864  -10612   -9423   -7117   -4154   -1199    1153    1993     918   -1015
   -3137   -5084   -5682   -4849   -3434   -1950    -289    1490    2610    3130
    3304    2652    1065    -611   -1959   -3165   -3674   -3091   -1857    -357
    1434    3317    4982    6282    6951    6751    6080    5630    5381    5654
    6774    7920    8465    8224    6884    4527    1960    -123   -1729   -2737
   -2688   -2081   -1827   -1604   -1016    -302     713    2241    3744    4464
    4279    3344    1659    -657   -2981   -4654   -5649   -5574   -4720   -4106
   -3779   -3844   -4173   -3971   -2537    -269    2129    4445    5603    5087
    3544    1518    -612   -2306   -2795   -2241   -1467    -473    1088    2828
    4439    6054    7026    6666    5507    4420    3680    3205    2674    1580
    -353   -2719   -4952   -6965   -8212   -8452   -8496   -8392   -8042   -8214
   -8869   -8827   -7497   -5046   -1614    2049    4418    4718    3816    2532
     846    -673   -1576   -2685   -3917   -4393   -4260   -3151   -1400     197
    1736    2140    1831    1250     273     760    2393    4257    5960    6225
    4587    1743    -998   -3054   -4000   -3837   -3013   -1597     399    3221
    6065    7720    8166    7069    4257    1131    -754   -1472   -1051     461
    1347     875    -424   -2819   -5720   -8059   -9503   -8910   -7318   -4964
   -1354    1896    5095    7518    8555    7357    3226   -3407  -12239  -20171
  -25315  -26609  -23325  -17126  -10239   -4257     207    2999    4506    4991
    5654    6293    6713    7852    9060   10628   11841   11998   10242    6323
     760   -6153  -11362  -13390  -11550   -5848    1781    8670   12388   12423
    9324    4262    -852   -3503   -3542   -1515    2254    6289    9510   11760
   13093   13337   12270    9639    6486    3019    -381   -2321   -3059   -2655
   -1289     -93     300     310     -27   -1220   -2603   -4339   -6995   -9886
  -13239  -16388  -18867  -20981  -21475  -20722  -18913  -14813   -8771   -1641
    6366   13823   19257   22279   21750   17626   10807    2076   -7098  -14686
  -19106  -19694  -16707  -11774   -5436    1219    6573   10594   12720   12934
   11566    9820    8376    7068    6880    7089    6627    5808    4773    2902
     -85   -3737   -7584  -11268  -14806  -17052  -17269  -15822  -12334   -7797
   -3419     427    2592    2932    2638    2060    1180     412      51      18
     214    1699    4044    6000    7615    8632    9136    8872    8575    8985
    9665   10797   12420   14192   14809   14228   13007   10717    8060    5644
    3267     994    -293    -252    1113    3811    6735    9223   10666   10363
    8480    4959      25   -5984  -12414  -17617  -21030  -22482  -22107  -20583
  -18073  -15475  -12420   -8190   -3781    1006    6204   10712   13970   15685
   15553   13033    8365    3025   -2359   -7674  -11484  -13274  -13354  -11261
   -7891   -4557   -1737      93    1013     953     -81   -1691   -4219   -6389
   -7014   -6464   -3644    1240    6813   11947   15810   17958   17137   13662
    8225    1411   -5273  -10164  -12226  -11514   -8221   -4036    -867     219
    -901   -4400   -9783  -14676  -18644  -20637  -19545  -15998  -10427   -4171
    2612    9062   13464   16157   16605   14576   11434    8388    6422    5475
    5782    6906    6909    5494    3193    -293   -4700   -8378  -10744  -12068
  -11391   -8381   -3890    1163    5738    8485    8644    6909    3576    -808
   -4226   -6092   -6857   -6363   -4567   -2505    -951     966    2596    2629
    1510    -460   -2793   -4696   -5607   -5701   -5399   -4428   -3763   -3913
   -4037   -3903   -3255   -1754     293    1854    2492    2036     569   -1536
   -3990   -5870   -7652   -9548  -10664  -10958  -10360   -8712   -5865   -2594
     -75    1213    1018    -409   -2224   -3559   -4140   -3950   -2576    -642
     800    2224    3375    3696    3293    2105     145   -2340   -4106   -5185
   -5870   -5294   -3954   -3023   -2787   -2795   -3540   -4826   -5242   -4676
   -3641   -2033     804    4285    7784   11834   15650   17817   17868   15819
   12104    7629    3542     674    -417     660    3825    8291   13090   17099
   18707   17906   14990   10487    5529     766   -3017   -6059   -7491   -7026
   -5509   -3463   -1731    -453   -1015   -3469   -6953  -11718  -16549  -20326
  -22064  -21684  -19800  -16370  -12743   -9446   -6193   -3189    -861     638
    2136    3535    5441    8566   12090   15102   17324   18193   16508   13334
    9558    5259    2132     841    1119    2740    5635    8813   10724   11806
   11768   10127    7816    5659    4379    3773    4410    6264    7864    8907
    8920    7691    5577    3474    2104    1234    1102    1535    2291    3409
    5105    6850    7495    7320    6004    2761    -962   -3775   -5909   -6484
   -5404   -3693   -2106   -1413   -1357   -2505   -4604   -6128   -6510   -5889
   -3967    -743    2678    6196    9672   12833   15191   16337   15884   12857
    8198    2742   -2856   -6839   -7980   -6226   -2852    1975    7602   12294
   16363   19792   21972   22548   21496   19204   15490   11536    8420    6241
    5393    5620    6278    6734    6979    7278    7632    8196    9010   10119
   11668   13370   14531   14467   13291   11121    8043    5213    3368    2433
    2408    3754    6215    8911   11985   15126   17351   18374   18015   16215
   12965    8626    4580    1264   -1041   -1529    -870       8     932    1564
    1447     643    -785   -3279   -6616   -9932  -13344  -16454  -18103  -18170
  -17233  -15825  -14167  -13733  -15367  -17968  -21158  -24974  -28967  -32767
  -36815  -40969  -44389  -47026  -49003  -50420  -51168  -51389  -51054  -49462
  -47365  -45790  -44984  -45544  -47438  -49904  -52222  -53815  -54423  -54003
  -53146  -52519  -51279  -48980  -45890  -41196  -34662  -26906  -18682   -9716
     483   10916   21715   32638   42361   50680   57483   62501   65616   67385
   68036   67033   64588   61366   56738   51378   46635   41198   35687   30501
   24599   18534   12385    6356      61   -6355  -12130  -17033  -20729  -23421
  -24519  -24735  -25303  -25575  -25807  -26453  -26606  -25873  -24563  -21698
  -17430  -12421   -7605   -2961    2969    7889   14060   21501   26888   32174
   36017   38134   38959   38722   37702   36277   35466   34908   35480   35994
   36645   37632   36314   33178   29025   22411   13824    4418   -5735  -15462
  -23932  -31003  -36426  -39544  -40669  -40401  -37717  -33246  -27984  -21972
  -15514   -8587   -2232    3732    8906   12511   14991   16595   17902   18355
   18352   17408   15806   13017    9942    7182    3587     503   -4336   -8472
  -11729  -14893  -15880  -17388  -18599  -19170  -20045  -20870  -21773  -22803
  -23351  -24881  -27706  -30460  -33758  -36585  -38172  -37508  -34652  -29917
  -23529  -16229   -7410    1296   10152   19316   27338   33492   38016   42308
   44702   46200   48452   50140   51530   52550   52279   50929   48724   45470
   41658   37683   34152   30581   26896   23648   20098   15654   10066    2583
   -6434  -15597  -24749  -32638  -39302  -43925  -45464  -45455  -42688  -38471
  -34496  -30933  -28897  -27503  -27153  -27271  -27261  -27187  -26334  -25578
  -23800  -21056  -18142  -14523  -11318   -7911   -3980     639    6670   13500
   20948   28137   34741   40396   44286   46709   47354   46327   43624   39594
   35046   29582   24311   20158   16480   13155   10716    9152    7309    5259
    3278     354   -3810   -9264  -15644  -22659  -30057  -36780  -43302  -49402
  -54560  -59282  -62138  -62491  -61095  -57643  -51596  -43228  -33713  -23781
  -13158   -3060    5465   13960   22640   30654   38642   46895   54084   59843
   63974   65256   63841   59758   53728   46555   38493   30526   22592   14688
    7352    1275   -4034   -9185  -13668  -18652  -23842  -27779  -30419  -30680
  -27989  -22361  -15110   -7131    1323    8249   13547   16821   18185   18051
   16646   16016   15913   17013   20668   26778   35173   44325   53196   60843
   66285   68549   67114   63781   58710   51545   43113   33607   24016   14668
    6083    -836   -6275  -10490  -13004  -13546  -12952  -11074   -8656   -6808
   -5306   -4673   -4893   -5895   -7178   -7573   -7547   -7203   -5584   -2853
    1190    6734   13080   20180   26919   32247   36130   37845   38032   36701
   33155   28791   23615   17817   12281    7440    3486    -401   -3334   -6067
   -9295  -11957  -14748  -17308  -19306  -20231  -19957  -19022  -17131  -15354
  -14471  -15618  -18855  -23742  -30478  -37702  -44783  -50559  -55050  -58284
  -59866  -61243  -62335  -63598  -65716  -68086  -70328  -73089  -76185  -78262
  -79749  -80401  -79366  -76638  -72633  -67692  -62206  -57686  -54308  -51317
  -48565  -46191  -43593  -40034  -36351  -32158  -26764  -21021  -15070   -8777
   -2340    4572   12404   20894   29618   37698   44907   51345   55564   58117
   60009   60794   61492   62545   63300   63370   62862   61662   59201   56284
   53232   48761   42661   35655   28001   20345   14276   10938   10159   11964
   16469   22538   29508   36716   42735   47267   49747   49859   47585   42962
   38031   32744   27574   25221   25390   27563   31479   36870   43600   49854
   54541   57361   58818   59668   58407   55136   49804   42860   36098   27463
   16978    5022   -8358  -22198  -36695  -50035  -61922  -71945  -79794  -86626
  -92678  -98008 -102803 -107969 -112397 -115425 -117540 -117363 -114424 -109496
 -102293  -93299  -84060  -74298  -64477  -55449  -46544  -37313  -27988  -19459
  -11427   -2586    6969   15550   23035   30263   35647   39008   41052   41826
   42491   43451   44712   46300   48194   49704   50775   51396   51643   51954
   50745   49196   47869   45213   41920   38274   34716   31284   28242   26147
   24039   22525   22117   21413   20409   19268   17763   15480   12682    9779
    5936    2078   -1310   -5640  -10324  -13951  -17101  -20586  -23600  -25102
  -26537  -27396  -26326  -24422  -22702  -21488  -19815  -19206  -19120  -18170
  -17332  -15776  -13056   -9569   -5626   -1043    3571    7674   10281   11547
   11317    9214    6667    3766    1050   -1418   -2804   -3347   -3696   -3010
   -1978   -1141      -9    1727    2941    4191    5990    8037   10747   14491
   19664   25082   30259   34535   36395   35490   31636   25511   17599    8716
     -82   -8888  -17128  -24869  -31786  -38318  -45283  -51879  -59527  -67853
  -76444  -86218  -95011 -102458 -108052 -111323 -111687 -109150 -105290  -98708
  -90281  -80094  -68414  -56339  -43378  -32097  -22117  -13044   -5854    1226
    8254   15481   23534   32167   40763   48291   55858   62486   66401   69248
   70686   70782   70224   69065   69998   71787   73236   76136   78738   80318
   81466   81797   80221   76950   73152   67363   59820   51424   42724   34090
   25367   18805   13784    9393    6048    2738    -542   -4422   -8303  -12117
  -16180  -19976  -24612  -30043  -35592  -41107  -47222  -53186  -57641  -61478
  -64316  -64945  -63935  -61276  -57114  -51488  -45124  -37940  -28408  -19221
   -9252    1662   12085   22368   31345   39061   43775   46268   45150   41531
   37605   31970   26484   21010   16292   12880   10608   10539   11441   12048
   11398    8927    4886   -1602   -8996  -15142  -20480  -24041  -25084  -24391
  -22311  -19058  -14653   -9638   -5531   -1346    1175     608     184    -701
   -1300   -1214     131    3150    5274    7310    7932    6646    3730   -1469
   -7874  -15425  -22880  -30109  -36777  -41909  -45188  -46891  -48155  -48225
  -48636  -50351  -51998  -54004  -56426  -58163  -58309  -57038  -53589  -47781
  -40209  -31501  -22268  -11760    -729   10633   22830   34441   45110   54724
   62338   67757   71268   73241   73180   72203   71862   70561   67729   64122
   59751   54319   48296   42895   37673   32682   28770   25600   22952   21380
   20747   20311   20769   22048   23461   24918   25942   26633   26423   25195
   23158   19874   15864   10913    5580     326   -4123   -6988   -9559  -10622
  -10785  -11587  -12842  -15077  -17195  -20532  -25561  -30890  -36924  -43014
  -48499  -52665  -56494  -58441  -57764  -57789  -56357  -53869  -52409  -50280
  -47763  -45363  -43112  -41090  -39366  -37748  -36066  -33714  -30669  -27746
  -24877  -22001  -19373  -17394  -15434  -13315  -11055   -7570   -3178    1750
    7491   13906   20033   25121   29527   32233   33111   32979   31747   29316
   25954   22610   19126   16382   15117   14411   14602   15997   17864   19795
   22605   26239   29463   32432   35514   38145   39504   39715   39409   37564
   33831   28641   22113   14456    6421    -881   -7600  -12331  -14807  -15954
  -15193  -12734   -9117   -5362    -970    2836    4992    6253    5663    3742
    1015   -1868   -4708   -7435   -9839  -12045  -13625  -14422  -14157  -13331
  -12666  -12300  -11914  -11872  -12464  -12680  -11452  -10768  -10203   -7147
   -4217    -916    4552   10652   16717   22482   28327   33255   37250   40841
   42801   43732   43769   42286   39921   37252   34548   32248   30432   29135
   28337   27322   26012   23470   18967   13643    7218   -1002  -10016  -18499
  -26593  -33856  -38910  -41866  -42522  -40986  -37645  -33364  -28815  -23380
  -18337  -14375  -10704   -7643   -5891   -4728   -3151   -1564     203    2497
    4461    6054    7515    8193    8990    9974   10037   10130   10196    9956
    9953    9549    9825    9352    6971    6551    7225    7793    9251   10775
   12692   14069   15343   16557   15968   15486   13838   11677   10418    6630
    4597    3941    1346    1359    3490    5289    7444   10694   13033   13598
   13857   13198   12009   10816    9108    7776    7084    6753    7457    7693
    8060    9464    9418    8973    8202    6491    4676    2289    -321   -3000
   -5511   -9008  -13144  -15770  -17712  -19040  -19082  -17197  -13847  -10341
   -5788    -991    2963    5810    8019    9633    9951   10095   10140   10573
   10450   10102   11044   11352   12030   13760   15305   16518   17206   16970
   15148   12855    9983    6495    3019    -447   -3824   -7988  -11605  -15431
  -19993  -23971  -28111  -32149  -35794  -38363  -40235  -41468  -42094  -42737
  -42754  -43070  -42886  -42106  -40778  -37972  -34937  -30736  -25139  -19018
