Raw acceleration counts   (Format v01.20 with 13 text lines)
Record of American Canyon Earthquake of Sun Aug 24, 2014 10:20 UTC
Hypocenter: 38.21550 -122.31167 H= 11km Mw=6.0, Md=5.9(NC), Ml=5.6(NC)
Origin: 2014/08/24 10:20:44 UTC (NCSN)
Statn No: 08-060681 Code:NC-C035   NCSN  Crawford St Concord
Coords: 37.9698 -122.0269  Site Geology:
Recorder: GSR-IA18  s/n ? ( ? Chns of   ? at Sta) Sensor: GeoSIG-AC63      
Rcrd start time: 2014/08/24 10:20:20.817 UTC (Q=5) RcrdId: (see comment)
Sta Chan   ?: 90 Deg (Rcrdr Chan  ?) Location:
Raw record length =  181.000 sec, Uncor max =     44136 counts, at  42.065 sec.
Processed: 2015/04/01 16:46:26 UTC (NCSN)
No filtering!
Values used when parameter of data value is unknown/unspecified:  -999, -999.000
 100 Integer-header values follow on  10 lines, Format = (10I8)
       0       1      50     120       1    -999    -999   60681    -999    -999
       8       8    -999       8    -999       1    -999    -999       4    -999
    -999    -999    -999    -999    -999    -999    -999    -999    -999     551
       3    -999    -999    -999      24      24    -999    -999    -999    2014
     236       8      24      10      20       5       5    -999    -999    -999
    -999     400    -999      90    -999    -999    -999    -999    -999    -999
    -999    -999    -999    -999    -999    -999    -999    -999    -999    -999
    -999    -999    -999    -999       1       0    -999    -999    -999    -999
    -999    -999    -999    -999    -999    -999    -999    -999    -999    -999
    -999    -999    -999    -999    -999    -999    -999    -999    -999    -999
 100 Real-header values follow on  20 lines, Format =(5F15.6)
      37.969803    -122.026917      23.000000    -999.000000    -999.000000
    -999.000000    -999.000000    -999.000000    -999.000000      38.215500
    -122.311667      11.250000       6.020000    -999.000000       5.610000
    -999.000000      36.977742     137.631844    -999.000000    -999.000000
    -999.000000       1.324547      11.100000      30.000000     151.000000
      80.000000    -999.000000    -999.000000    -999.000000      20.816680
    -999.000000       0.000000    -999.000000       0.005000     181.000000
    -999.000000    -999.000000    -999.000000    -999.000000     100.000000
       0.700000       3.333300       9.999900       3.000000       1.136305
    -999.000000       1.000000    -999.000000    -999.000000    -999.000000
    -999.000000    -999.000000    -999.000000    -999.000000    -999.000000
    -999.000000    -999.000000    -999.000000    -999.000000    -999.000000
    -999.000000       5.000000     181.000000   44136.000000      42.065000
     -16.190028    -999.000000    -999.000000    -999.000000    -999.000000
    -999.000000    -999.000000    -999.000000    -999.000000    -999.000000
    -999.000000    -999.000000    -999.000000    -999.000000    -999.000000
    -999.000000    -999.000000    -999.000000    -999.000000    -999.000000
    -999.000000    -999.000000    -999.000000    -999.000000    -999.000000
    -999.000000    -999.000000    -999.000000    -999.000000    -999.000000
    -999.000000    -999.000000    -999.000000    -999.000000    -999.000000
   2 Comment line(s) follow, each starting with a |
| RcrdId: NC.72282711.NC.C035.HNE.01
|<SCNL>C035.HNE.NC.01    <AUTH> 2015/03/01 16:46:26.000
   36200 raw accel.   pts, approx  181 secs, units=counts (50),Format=(10I8)
[...]
     649     856     847     625     452     152    -259    -617    -976   -1265
   -1570   -1823   -1953   -2061   -2173   -2304   -2495   -2805   -3249   -3737
   -4187   -4595   -4889   -5017   -4976   -4818   -4520   -3988   -3367   -2759
   -2125   -1477    -868    -372      87     538     824    1033    1252    1414
    1553    1615    1632    1632    1523    1384    1278    1205    1159    1127
    1105    1078    1104    1169    1314    1520    1684    1886    2058    2145
    2205    2233    2188    2032    1849    1659    1417    1122     816     570
     288     -74    -355    -604    -944   -1293   -1672   -2087   -2481   -2925
   -3267   -3485   -3772   -3949   -3940   -3837   -3687   -3472   -3087   -2671
   -2257   -1790   -1315    -915    -670    -385     -88     133     361     515
     622     632     496     271      50    -202    -560    -782    -926   -1004
    -910    -663    -222     237     708    1176    1482    1594    1503    1294
    1014     663     349     146     -18    -102     -37      37      66     101
     113      31    -134    -332    -550    -752    -950   -1092   -1186   -1313
   -1375   -1335   -1257   -1182   -1090    -892    -688    -585    -434    -241
    -168    -179    -272    -456    -715   -1130   -1561   -1868   -2167   -2402
   -2560   -2662   -2651   -2642   -2570   -2426   -2250   -2095   -2057   -2006
   -1979   -1935   -1744   -1539   -1321   -1151   -1063    -966   -1111   -1397
   -1579   -1790   -1958   -1951   -1773   -1593   -1407   -1128    -957    -970
   -1054   -1165   -1354   -1646   -1915   -2097   -2240   -2313   -2370   -2330
   -2182   -2010   -1753   -1539   -1356   -1236   -1238   -1219   -1220   -1323
   -1408   -1493   -1662   -1800   -1846   -1830   -1825   -1746   -1611   -1544
   -1432   -1209    -895    -563    -224     106     399     624     774     897
     888     809     672     483     334     110       1      73     128     213
     380     582     648     632     601     454     244     -42    -232    -315
    -445    -538    -540    -424    -339    -201      29     148     281     469
     663     871    1076    1276    1372    1322    1085     647      54    -743
   -1607   -2415   -3174   -3798   -4257   -4469   -4381   -4113   -3631   -2901
   -2076   -1294    -556     155     743    1217    1526    1672    1720    1683
    1660    1575    1460    1425    1451    1602    1875    2188    2543    2755
    2787    2843    2838    2829    2681    2456    2418    2260    2165    2180
    2006    1667    1147     604     132    -396    -944   -1246   -1379   -1411
   -1226   -1010    -755    -433     -87     266     391     341     253      -7
    -334    -634    -972   -1245   -1521   -1754   -1789   -1731   -1490    -974
    -202     809    1908    3057    4098    4886    5517    5824    5756    5539
    5237    4845    4439    4069    3777    3747    3911    4242    4769    5299
    5767    6114    6374    6510    6540    6550    6406    6089    5737    5519
    5315    4962    4514    3987    3333    2587    1872    1382    1201    1162
    1299    1546    1854    2285    2502    2571    2558    2348    2047    1652
    1264     776     218    -283    -774   -1085   -1243   -1337   -1303   -1207
   -1047    -723    -410    -153     125     279     320     397     536     586
     557     462     280     163     173     385     811    1360    1865    2277
    2697    3009    3177    3179    2979    2664    2263    1831    1285     653
     181    -150    -390    -541    -593    -497    -470    -614    -851   -1164
   -1554   -2001   -2381   -2797   -3224   -3602   -3994   -4405   -5052   -5903
   -6862   -7920   -8928   -9748  -10206  -10349  -10223   -9776   -9152   -8434
   -7674   -6906   -6016   -5129   -4264   -3255   -2220   -1274    -429     286
     748     914     907     804     542     134    -302    -721    -941   -1013
    -984    -713    -274     299    1010    1901    2780    3581    4477    5288
    5995    6674    7211    7592    7767    7684    7408    6974    6230    5263
    4294    3223    2189    1224     282    -452   -1123   -1667   -2195   -2804
   -3116   -3323   -3446   -3222   -2854   -2332   -1682   -1171    -643    -134
      89     209     163     -88    -529   -1270   -1981   -2784   -3812   -4858
   -6077   -7263   -8336   -9423  -10334  -11104  -11614  -11765  -11721  -11529
  -11208  -10776  -10308   -9858   -9504   -9100   -8567   -8117   -7548   -6895
   -6334   -5831   -5430   -4922   -4444   -4059   -3476   -2707   -1868   -1008
    -138     692    1571    2422    3202    3974    4478    4995    5382    5403
    5458    5283    4951    4532    3945    3584    3423    3247    3214    3408
    3582    3707    3780    3937    4091    4000    3915    3719    3353    2955
    2442    1908    1252     515    -125    -684   -1097   -1263   -1099    -635
     178    1285    2645    4216    5643    6809    7680    8088    8086    7801
    7363    6929    6560    6335    6367    6569    6771    6883    6830    6548
    6035    5468    4853    4019    3030    1982     870    -154    -999   -1774
   -2455   -3139   -3844   -4479   -5089   -5635   -6192   -6678   -7025   -7377
   -7673   -7908   -8142   -8380   -8649   -9005   -9509  -10092  -10694  -11295
  -11920  -12424  -12818  -13355  -13803  -14165  -14487  -14485  -14261  -13761
  -12965  -11984  -10845   -9626   -8359   -7168   -5947   -4649   -3384   -2133
    -927     221    1189    2082    3079    4018    5046    6043    6910    7842
    8545    9112    9515    9624    9712    9729    9756    9927   10224   10591
   10918   11092   11069   10876   10467    9865    9066    8094    6995    5832
    4736    3828    3103    2508    2146    1802    1489    1370    1203    1029
     875     672     567     648     764     903    1109    1404    1779    2016
    2206    2497    2802    3158    3630    4279    5143    6112    7145    8250
    9227    9957   10629   11111   11213   11178   10996   10612   10131    9479
    8704    7772    6730    5804    4934    4148    3475    2928    2382    1787
    1281     859     597     351     131      82      77     120     498    1297
    2311    3556    4989    6401    7681    8769    9769   10766   11579   12209
   12712   13053   13384   13675   14045   14476   14770   15082   15317   15412
   15351   15068   14712   14154   13382   12592   11760   10887    9994    9085
    8168    7207    6246    5417    4630    3786    3039    2308    1530     897
     386     -59    -406    -587    -646    -693    -700    -732    -790   -1007
   -1371   -1760   -2293   -2960   -3878   -4879   -5772   -6789   -7913   -9058
  -10253  -11528  -12850  -14036  -15068  -15990  -16658  -16873  -16582  -15933
  -14851  -13304  -11573   -9686   -7645   -5759   -4177   -2931   -2039   -1394
   -1178   -1341   -1649   -2168   -2763   -3398   -4037   -4595   -5283   -6035
   -6733   -7383   -7878   -8284   -8491   -8745   -9150   -9472  -10077  -10723
  -11378  -12187  -12829  -13494  -14160  -14666  -15269  -15864  -16072  -16089
  -16018  -15840  -15652  -15384  -15070  -14750  -14331  -13684  -12986  -12242
  -11374  -10454   -9568   -8903   -8411   -8097   -8014   -8224   -8288   -8150
   -8234   -8156   -7939   -7701   -7345   -6963   -6403   -5747   -5306   -4857
   -4397   -4271   -4167   -4163   -4359   -4469   -4672   -4880   -4867   -4824
   -4729   -4544   -4232   -3790   -3371   -2949   -2841   -2802   -2609   -2533
   -2438   -2405   -2368   -2241   -2246   -2370   -2190   -1816   -1422    -744
     154    1392    2791    4320    6275    8316   10276   12046   13530   14731
   15419   15731   15771   15578   15386   15243   15158   15165   15432   15862
   16281   16758   17190   17695   18191   18534   18764   18993   19204   19093
   19056   19080   18950   18875   18812   18766   18784   18940   19304   20027
   20933   22058   23397   24637   25662   26269   26618   26644   26055   25233
   24341   23265   22214   21253   20359   19579   18834   18046   17191   16252
   15247   14070   12736   11279    9663    8069    6418    4535    2607     734
   -1282   -3452   -5796   -8134  -10275  -12407  -14390  -16151  -17672  -19038
  -20299  -21268  -22124  -22972  -23682  -24134  -24411  -24568  -24573  -24548
  -24448  -24190  -23746  -23259  -22800  -22127  -21283  -20329  -19161  -17766
  -16214  -14742  -13417  -12278  -11441  -10856  -10517  -10410  -10514  -10664
  -10627  -10509  -10168   -9457   -8533   -7363   -6063   -4682   -3231   -1896
    -655     340    1084    1632    1910    2078    1965    1672    1203     437
    -397   -1440   -2628   -3838   -4949   -5995   -7003   -7556   -8095   -8461
   -8590   -9280   -9622  -10059  -11140  -11988  -13128  -14409  -15610  -16854
  -17885  -18804  -19300  -19388  -19242  -18555  -17481  -15955  -13991  -11939
   -9509   -6802   -4090   -1374    1361    4277    6986    9313   11572   13688
   15512   16992   18167   19033   19438   19507   19348   18875   18223   17355
   16315   15300   14335   13521   12762   12067   11426   10804   10281    9816
    9288    8671    8115    7364    6527    5691    4617    3544    2442    1419
     529    -443   -1386   -2311   -3279   -4303   -5313   -6299   -7367   -8315
   -9175   -9935  -10466  -10876  -10916  -10660  -10360   -9904   -9349   -8825
   -8384   -7938   -7406   -6866   -6312   -5566   -4712   -3905   -2873   -1711
    -623     646    1923    3272    4706    5954    7282    8390    9319   10189
   10745   11272   11743   12282   12913   13676   14466   14983   15531   15888
   15916   15761   15237   14466   13526   12483   11490   10469    9609    9052
    8722    8632    8556    8480    8479    8323    7988    7563    6942    5858
    4551    3185    1843     818    -805   -2801   -4071   -5192   -5905   -6050
   -6439   -6651   -6664   -6499   -5779   -5041   -4057   -2712   -1448     -87
    1337    2519    3617    4926    5946    6460    6914    7386    7789    7962
    7993    8047    7915    7865    8028    8264    8848    9607   10253   10939
   11754   12517   13088   13456   13715   13841   13654   13298   12731   11814
   10722    9477    7997    6220    4226    2096    -329   -2904   -5351   -7695
   -9899  -11967  -13660  -14929  -16006  -16632  -17031  -17355  -17353  -17264
  -17120  -16947  -16903  -16785  -16481  -16125  -15839  -15583  -15222  -14871
  -14579  -14276  -13969  -13635  -13291  -12838  -12289  -11723  -10767   -9598
   -8849   -7987   -6983   -6275   -5437   -5156   -5345   -5177   -5549   -6274
   -6730   -7148   -7699   -8102   -7972   -8053   -7989   -7450   -6981   -6055
   -4685   -3127   -1498      -5    1340    2690    4026    4902    5676    6504
    7134    7622    8083    9016   10180   11271   12776   14483   15957   17549
   19190   20636   22126   23418   24601   25707   26479   27350   28031   28566
   29370   30110   30862   31532   32178   32790   33235   33703   34039   34070
   33715   33150   32312   31353   30296   28658   26872   25022   22846   20487
   17861   15160   12460    9558    6630    3733     754   -2088   -4739   -7313
   -9757  -12151  -14398  -16370  -18134  -19529  -20528  -21330  -22074  -22738
  -23385  -24125  -25012  -26116  -27332  -28756  -30361  -31944  -33515  -35012
  -36353  -37524  -38546  -39484  -40316  -40807  -41119  -41824  -42711  -43216
  -43577  -43898  -44024  -44136  -44102  -43854  -43495  -42947  -42091  -40937
  -39596  -37805  -35726  -33691  -31406  -28959  -26662  -24602  -22645  -20731
  -19186  -17969  -16845  -15871  -15052  -14395  -13782  -13060  -12339  -11468
  -10492   -9521   -8386   -7165   -5665   -4035   -2381    -475    1302    2989
    4589    5907    7123    8148    9091   10013   10901   11932   13099   14441
   15874   17357   18821   20105   21247   22117   22736   23139   23234   23155
   22936   22574   22163   21842   21534   21217   21096   20981   21001   21287
   21549   21766   21986   22250   22359   22410   22555   22652   22867   23225
   23696   24347   25123   25901   26753   27649   28410   29051   29425   29505
   29372   28982   28372   27559   26643   25652   24609   23528   22476   21545
   20442   19372   18315   17120   16055   14730   13222   11653   10036    8567
    6862    4983    3358    1910     425   -1031   -2429   -3495   -4305   -5318
   -6315   -7124   -7877   -8619   -9204   -9600   -9992  -10310  -10583  -10866
  -11031  -11244  -11439  -11807  -12476  -12983  -13665  -14532  -15369  -16422
  -17559  -18814  -20127  -21260  -22390  -23654  -24716  -25639  -26627  -27727
  -28944  -29551  -29609  -29708  -29578  -29049  -28246  -27357  -26280  -24961
  -23472  -21800  -19937  -17977  -16082  -14016  -11868   -9856   -7879   -5836
   -3955   -2343    -819     591    1936    3125    3963    4638    5472    6203
    6623    6900    7373    8007    8349    8554    8842    9240    9413    9467
    9730    9969   10145   10330   10757   11338   12041   12821   13442   14226
   15003   15491   15781   15775   15610   15275   14705   13921   13077   12285
   11263   10172    9100    7928    6650    5274    4059    2921    1728     572
    -573   -1709   -2750   -3695   -4621   -5500   -6361   -7179   -7979   -8740
   -9428  -10190  -10873  -11558  -12377  -13129  -13835  -14478  -15044  -15564
  -15886  -15997  -15915  -15603  -15195  -14589  -13801  -13126  -12551  -12015
  -11499  -11036  -10653  -10286   -9854   -9274   -8523   -7614   -6550   -5312
   -3762   -1990    -243    1518    3312    5112    6782    8153    9046    9721
   10243   10408   10419   10184   10048    9962    9566    9368    9439    9528
    9640    9830   10362   11075   11661   12400   13211   14050   14934   15690
   16505   17323   18125   18965   19726   20465   21172   21746   22238   22724
   23187   23633   24003   24281   24537   24670   24573   24323   24015   23624
   23050   22405   21869   21203   20402   19528   18534   17506   16071   14449
   12762   10609    8313    6107    4048    1995     -54   -1621   -2577   -3340
   -3951   -4037   -4044   -4023   -3832   -3880   -4040   -4134   -4123   -4176
   -4396   -4853   -5580   -6418   -7507   -8791  -10088  -11436  -12935  -14472
  -15908  -17201  -18344  -19432  -20421  -21154  -21747  -22201  -22441  -22701
  -22767  -22669  -22638  -22405  -21908  -21512  -21391  -21280  -21012  -20594
  -20199  -19960  -19816  -19757  -19868  -20108  -20424  -20740  -20948  -21251
  -21596  -21764  -21810  -21801  -21737  -21537  -21217  -20845  -20478  -20091
  -19698  -19418  -19203  -19092  -19075  -18938  -18773  -18694  -18443  -17914
  -17269  -16580  -15687  -14695  -13775  -12821  -11971  -11208  -10466   -9846
   -9148   -8349   -7460   -6413   -5222   -3867   -2503   -1067     453    1974
    3536    5018    6519    8051    9438   10838   12294   13675   14933   15964
   16882   17714   18292   18780   19235   19541   19868   20306   20770   21313
   21820   22255   22651   22901   23106   23202   23191   23141   23091   23153
   23194   23253   23302   23371   23512   23564   23568   23393   22845   22142
   21417   20380   19103   17846   16516   15127   13728   12373   11135    9874
    8603    7403    6054    4567    2965    1243    -445   -2203   -3939   -5512
   -6784   -7720   -8526   -9166   -9539   -9720   -9851   -9865   -9961   -9991
   -9879   -9928   -9987  -10077  -10117  -10214  -10492  -10739  -10931  -11158
  -11522  -11873  -11987  -12227  -12735  -13038  -13090  -12971  -13053  -13481
  -13575  -13250  -12894  -12333  -11565  -10957  -10284   -9463   -8644   -7673
   -6623   -5513   -4317   -3274   -2317   -1284    -433     223     819    1217
    1568    1720    1587    1473    1147     817     434    -193    -763   -1491
   -2213   -2825   -3551   -4295   -4859   -5309   -5782   -6128   -6374   -6544
   -6781   -7084   -7221   -7354   -7575   -7668   -7645   -7693   -7767   -7905
   -8044   -8164   -8379   -8591   -8665   -8610   -8585   -8457   -8220   -8041
   -7962   -7854   -7630   -7465   -7296   -6983   -6569   -6088   -5405   -4636
   -3896   -3065   -2203   -1340    -753    -543    -459    -369    -156      29
     314     832    1355    2011    2760    3654    4698    5577    6419    7130
    7518    7839    8105    8149    8059    7925    7751    7598    7489    7385
