Raw acceleration counts   (Format v01.20 with 13 text lines)
Record of American Canyon Earthquake of Sun Aug 24, 2014 10:20 UTC
Hypocenter: 38.21550 -122.31167 H= 11km Mw=6.0, Md=5.9(NC), Ml=5.6(NC)
Origin: 2014/08/24 10:20:44 UTC (NCSN)
Statn No: 08-060678 Code:NC-C033   NCSN  Glashaus Lp Emeryville
Coords: 37.8467 -122.2895  Site Geology:
Recorder: GSR-IA18  s/n ? ( ? Chns of   ? at Sta) Sensor: GeoSIG-AC63      
Rcrd start time: 2014/08/24 10:20:21.471 UTC (Q=5) RcrdId: (see comment)
Sta Chan   ?: 90 Deg (Rcrdr Chan  ?) Location:
Raw record length =  181.000 sec, Uncor max =     31332 counts, at  39.455 sec.
Processed: 2015/04/01 16:46:26 UTC (NCSN)
No filtering!
Values used when parameter of data value is unknown/unspecified:  -999, -999.000
 100 Integer-header values follow on  10 lines, Format = (10I8)
       0       1      50     120       1    -999    -999   60678    -999    -999
       8       8    -999       8    -999       1    -999    -999       4    -999
    -999    -999    -999    -999    -999    -999    -999    -999    -999     551
       3    -999    -999    -999      24      24    -999    -999    -999    2014
     236       8      24      10      20       5       5    -999    -999    -999
    -999     400    -999      90    -999    -999    -999    -999    -999    -999
    -999    -999    -999    -999    -999    -999    -999    -999    -999    -999
    -999    -999    -999    -999       1       0    -999    -999    -999    -999
    -999    -999    -999    -999    -999    -999    -999    -999    -999    -999
    -999    -999    -999    -999    -999    -999    -999    -999    -999    -999
 100 Real-header values follow on  20 lines, Format =(5F15.6)
      37.846699    -122.289543       2.000000    -999.000000    -999.000000
    -999.000000    -999.000000    -999.000000    -999.000000      38.215500
    -122.311667      11.250000       6.020000    -999.000000       5.610000
    -999.000000      41.054549     177.294739    -999.000000    -999.000000
    -999.000000       1.324547      11.100000      30.000000     151.000000
      80.000000    -999.000000    -999.000000    -999.000000      21.471220
    -999.000000       0.000000    -999.000000       0.005000     181.000000
    -999.000000    -999.000000    -999.000000    -999.000000     100.000000
       0.700000       3.333300       9.999900       3.000000       1.136305
    -999.000000       1.000000    -999.000000    -999.000000    -999.000000
    -999.000000    -999.000000    -999.000000    -999.000000    -999.000000
    -999.000000    -999.000000    -999.000000    -999.000000    -999.000000
    -999.000000       5.000000     181.000000   31332.000000      39.455000
      -0.237569    -999.000000    -999.000000    -999.000000    -999.000000
    -999.000000    -999.000000    -999.000000    -999.000000    -999.000000
    -999.000000    -999.000000    -999.000000    -999.000000    -999.000000
    -999.000000    -999.000000    -999.000000    -999.000000    -999.000000
    -999.000000    -999.000000    -999.000000    -999.000000    -999.000000
    -999.000000    -999.000000    -999.000000    -999.000000    -999.000000
    -999.000000    -999.000000    -999.000000    -999.000000    -999.000000
   2 Comment line(s) follow, each starting with a |
| RcrdId: NC.72282711.NC.C033.HNE.01
|<SCNL>C033.HNE.NC.01    <AUTH> 2015/03/01 16:46:26.000
   36200 raw accel.   pts, approx  181 secs, units=counts (50),Format=(10I8)
[...]
     851    1146    1332    1474    1719    2152    2544    2804    3099    3341
    3457    3511    3536    3541    3578    3604    3600    3603    3520    3435
    3347    3215    3087    2955    2867    2786    2728    2663    2499    2214
    1839    1574    1376    1043     613     189    -105    -202    -168    -109
       2     201     402     516     478     339      63    -393   -1012   -1805
   -2561   -3139   -3515   -3657   -3610   -3320   -2914   -2534   -2209   -2060
   -1929   -1799   -1747   -1582   -1322   -1023    -763    -586    -366     -58
     206     323     316     183      58      -7     -90    -151    -126     -44
      88     318     533     623     564     416     268     218     161     -49
    -183    -182    -175    -272    -473    -600    -664    -746    -896   -1096
   -1206   -1164   -1030    -825    -543    -226      36     106       6    -240
    -652   -1112   -1514   -1868   -2148   -2262   -2306   -2302   -2107   -1697
   -1227    -831    -559    -479    -524    -675    -920   -1184   -1440   -1721
   -2084   -2393   -2622   -2704   -2599   -2507   -2313   -1973   -1570   -1147
    -901    -736    -693    -785    -865   -1020   -1133   -1257   -1344   -1322
   -1275    -989    -676    -450    -155     128     484     882    1255    1648
    1901    1935    1872    1739    1685    1852    2026    2232    2520    2797
    3079    3211    3264    3285    3120    2859    2597    2441    2354    2172
    1870    1407     894     318    -450   -1166   -1736   -2219   -2465   -2451
   -2305   -2082   -1782   -1573   -1611   -1810   -2115   -2444   -2697   -2917
   -3090   -3217   -3306   -3290   -3181   -3014   -2792   -2516   -2049   -1409
    -769    -101     430     694     789     732     613     558     586     617
     767    1073    1397    1765    2043    2143    2055    1921    1864    1753
    1648    1507    1340    1327    1469    1748    2002    2119    2252    2390
    2387    2287    2200    2119    1962    1697    1412    1139     880     596
     180    -251    -653   -1025   -1118    -960    -654    -208     183     480
     744     918     966     911     738     485     292     101    -117    -225
    -180     -73     -13      24     -34    -216    -328    -383    -473    -516
    -465    -377    -215     -57     -88    -158    -227    -330    -388    -501
    -479    -290    -134      58     137      98      80     -90    -414    -776
   -1127   -1265   -1092    -632      64     852    1619    2258    2719    3064
    3203    3036    2738    2437    2124    1835    1617    1477    1444    1533
    1668    1795    1902    1964    1954    1865    1706    1480    1221     982
     729     501     427     406     392     379     259     146      46    -109
    -290    -541    -700    -747    -768    -735    -714    -589    -502    -554
    -580    -681    -822   -1052   -1415   -1804   -2207   -2574   -2810   -2786
   -2571   -2126   -1460    -783     -48     758    1514    2058    2337    2497
    2581    2521    2437    2436    2486    2576    2700    2818    2912    3023
    2992    2714    2322    1878    1450     984     503      35    -429    -739
    -901    -852    -650    -527    -407    -252     -95      90     258     333
     258     -20    -458    -942   -1490   -2042   -2455   -2766   -3003   -3082
   -3023   -2929   -2830   -2685   -2562   -2498   -2407   -2294   -2153   -2005
   -1863   -1749   -1566   -1174    -778    -447    -110     285     767    1173
    1511    1835    2160    2496    2666    2600    2450    2223    1924    1588
    1125     564      20    -410    -839   -1209   -1380   -1403   -1314   -1258
   -1247   -1291   -1348   -1468   -1721   -1985   -2280   -2545   -2827   -3173
   -3394   -3422   -3396   -3336   -3270   -3389   -3555   -3747   -4023   -4347
   -4765   -5120   -5438   -5689   -5768   -5705   -5473   -5210   -4986   -4697
   -4251   -3642   -2966   -2361   -1950   -1590   -1125    -671    -153     453
    1052    1855    2794    3654    4373    4904    5227    5144    4675    3971
    3139    2331    1591     976     479     138     -71    -249    -294    -279
    -303    -293    -309    -394    -511    -656    -847   -1038   -1193   -1368
   -1460   -1458   -1498   -1519   -1518   -1614   -1816   -1983   -2050   -1990
   -1730   -1416   -1145    -916    -734    -597    -559    -615    -772    -922
    -981    -940    -756    -568    -278     196     654    1081    1376    1509
    1578    1570    1505    1336    1128     948     757     703     886    1245
    1575    1798    2020    2235    2427    2349    1933    1375     787     353
     -95    -590    -965   -1155   -1104    -893    -497      56     797    1655
    2468    3307    4096    4807    5473    5964    6109    5922    5551    5043
    4460    3773    3052    2404    1816    1451    1257    1070     934     855
     801     773     739     639     558     596     664     726     828     902
     879     733     526     432     369     263      57    -326    -543    -615
    -789    -944   -1007   -1008    -936    -792    -583    -246     139     584
    1060    1527    1998    2209    2113    1820    1356     867     501     321
     291     315     419     529     623     794     905     943     877     692
     446     108    -278    -627    -861   -1114   -1349   -1452   -1429   -1190
    -848    -525    -267    -132     -84     -70      21     206     489     972
    1671    2563    3551    4490    5267    5622    5517    5090    4313    3313
    2106     776    -445   -1501   -2264   -2790   -3150   -3405   -3580   -3567
   -3499   -3327   -2930   -2401   -1763   -1034    -315     403    1143    1817
    2331    2681    2945    3096    3224    3460    3858    4440    5172    5994
    6723    7457    8156    8659    9062    9199    9119    8898    8473    8061
    7589    6902    5967    4769    3468    2064     596    -781   -2087   -3130
   -3787   -4156   -4263   -4299   -4353   -4465   -4708   -5087   -5610   -6130
   -6578   -6930   -7238   -7590   -7959   -8319   -8570   -8791   -8983   -9005
   -8852   -8425   -7671   -6593   -5115   -3362   -1565     119    1553    2777
    3670    4078    4006    3414    2478    1367     205    -881   -1831   -2510
   -2785   -2638   -2132   -1309    -360     530    1252    1654    1761    1574
    1045     349    -332    -978   -1587   -2146   -2670   -3054   -3282   -3324
   -3196   -3056   -2755   -2317   -1746   -1003    -303     395    1159    1874
    2440    2770    2766    2550    2134    1342      76   -1611   -3583   -5725
   -7899  -10005  -11859  -13448  -14694  -15375  -15463  -15021  -14190  -13036
  -11607   -9908   -8016   -6148   -4475   -3007   -1735    -730     -60     166
      48    -328    -911   -1625   -2395   -3078   -3705   -4174   -4398   -4402
   -4184   -3794   -3220   -2520   -1721    -890     -39     887    1790    2660
    3402    3974    4482    4852    5073    5204    5204    5238    5301    5289
    5363    5425    5564    5879    6307    6973    7666    8393    9296   10143
   10889   11531   12073   12716   13426   14082   14705   15311   16014   16778
   17417   17694   17549   16975   15780   14086   11963    9506    6918    4338
    2063     130   -1432   -2660   -3655   -4259   -4516   -4527   -4391   -4225
   -4131   -4143   -4202   -4591   -5411   -6491   -7830   -9258  -10649  -11961
  -12932  -13391  -13321  -12702  -11595  -10064   -8212   -6234   -4331   -2610
   -1126     170    1235    1845    2069    1926    1339     355   -1062   -2638
   -3978   -4830   -5094   -4868   -4075   -2684    -814    1402    3577    5416
    6787    7455    7472    7052    6185    5035    3891    2880    2083    1488
    1071     695     166    -440   -1036   -1654   -2312   -2941   -3571   -4115
   -4330   -4255   -3910   -3322   -2571   -1631    -548     499    1202    1563
    1710    1609    1436    1152     605      12    -509    -863   -1078   -1457
   -2047   -2891   -4039   -5442   -7105   -8976  -11068  -13188  -15007  -16244
  -16785  -16672  -15863  -14542  -12752  -10605   -8413   -6347   -4620   -3204
   -2096   -1254    -654    -232     337    1158    2214    3310    4296    5210
    6131    7108    7963    8579    9134    9799   10768   12215   13935   15751
   17395   18724   19825   20599   21063   21191   21095   20886   20599   20399
   20312   20224   19929   19474   18930   18326   17691   16999   16351   15751
   15229   14664   13856   12727   11108    9022    6532    3754     951   -1647
   -3738   -5181   -5962   -6150   -5834   -4969   -3681   -2170    -634     743
    1875    2695    3217    3374    3084    2424    1428     189   -1192   -2576
   -3737   -4689   -5293   -5305   -4773   -3756   -2273    -392    1837    4355
    6877    9292   11603   13572   15132   16262   16885   17113   17151   17120
   17099   17146   17259   17319   17198   16922   16297   15253   13906   12244
   10404    8389    6314    4239    2094      90   -1796   -3589   -5228   -6782
   -8246   -9569  -10806  -12022  -13124  -14157  -15209  -16255  -17347  -18651
  -20093  -21456  -22750  -23863  -24861  -25881  -26817  -27619  -28249  -28827
  -29348  -29714  -29987  -30066  -29893  -29468  -28695  -27555  -26079  -24394
  -22607  -20642  -18569  -16577  -14660  -12813  -11142   -9613   -8235   -7110
   -6196   -5592   -5278   -5046   -4921   -4824   -4694   -4560   -4291   -3768
   -3080   -2404   -1692    -810     239    1275    2244    3180    3991    4693
    5365    6126    7019    8034    9043    9858   10433   10606   10303    9500
    8128    6274    4017    1538    -924   -3283   -5517   -7568   -9370  -10897
  -12107  -13008  -13586  -13679  -13360  -12590  -11329   -9830   -8072   -6342
   -4961   -3928   -3362   -3288   -3591   -4103   -4729   -5177   -5330   -5248
   -4850   -4220   -3358   -2306   -1236    -324     430    1149    1823    2501
    3241    4047    4979    6021    6977    7800    8637    9499   10417   11487
   12749   14141   15666   17361   19056   20590   21871   22897   23786   24552
   25053   25237   25197   25102   25001   24808   24560   24181   23854   23614
   23296   23165   23202   23370   23621   23717   23624   23330   22805   21909
   20516   18571   15988   12864    9505    6135    2727    -622   -3682   -6416
   -8766  -10777  -12549  -14103  -15558  -16893  -18094  -19056  -19607  -19814
  -19576  -18963  -18205  -17367  -16618  -16085  -15836  -15853  -16118  -16551
  -16945  -17174  -17132  -16693  -15819  -14523  -12863  -10999   -8970   -6734
   -4330   -2015      45    1878    3348    4546    5471    6005    6358    6534
    6587    6721    6964    7338    7662    7803    7807    7548    7029    6319
    5485    4771    4254    4050    4280    4886    5826    7023    8402    9813
   11028   11890   12358   12436   12126   11426   10364    8982    7357    5712
    4111    2503     993    -341   -1487   -2559   -3704   -4884   -6130   -7677
   -9522  -11423  -13155  -14609  -15865  -16891  -17659  -18172  -18524  -18933
  -19361  -19787  -20236  -20646  -20959  -21067  -20897  -20537  -20065  -19499
  -18926  -18218  -17247  -15965  -14246  -12239  -10025   -7637   -5214   -2750
    -411    1791    3956    6070    8289   10536   12700   14786   16708   18395
   19836   21068   22117   23143   24226   25451   26870   28345   29708   30702
   31273   31332   30745   29574   27860   25845   23825   21931   20226   18778
   17683   16882   16244   15598   14730   13627   12159   10238    7988    5377
    2689      29   -2481   -4494   -6074   -7104   -7734   -8047   -8028   -7990
   -7911   -7965   -8258   -8757   -9555  -10550  -11509  -12264  -12841  -13292
  -13668  -13990  -14214  -14333  -14375  -14269  -13997  -13510  -12637  -11459
  -10085   -8576   -7076   -5738   -4628   -3772   -3179   -2713   -2371   -2190
   -2007   -1781   -1530   -1279   -1161   -1086    -923    -726    -463     -88
     448    1142    2041    3246    4604    6041    7485    8795    9923   10771
   11413   11826   11833   11507   10989   10444    9838    9037    8130    7068
    5903    4642    3066    1166    -894   -2951   -4993   -6953   -8816  -10629
  -12297  -13817  -15224  -16603  -17909  -18992  -19900  -20575  -21094  -21674
  -22197  -22617  -22990  -23261  -23489  -23669  -23673  -23443  -22949  -22126
  -21004  -19716  -18339  -16813  -15130  -13404  -11602   -9784   -7883   -5797
   -3789   -1847     -42    1552    3083    4361    5315    5965    6314    6459
    6567    6799    7089    7430    7761    7887    7782    7422    6712    5583
    4027    2214     408   -1189   -2542   -3659   -4445   -4957   -5200   -5193
   -5063   -4929   -4991   -5090   -5151   -5157   -5014   -4909   -4776   -4653
   -4544   -4387   -4295   -4156   -4037   -3933   -3749   -3502   -3125   -2575
   -1767    -753     324    1356    2269    2967    3457    3743    3751    3668
    3484    3154    2867    2576    2314    2171    2180    2488    3151    4072
    5149    6312    7463    8687   10032   11407   12704   13823   14775   15557
   16263   16946   17563   18073   18506   18903   19148   19301   19341   19168
   18770   18127   17292   16176   14786   13180   11490    9876    8420    7321
    6595    6235    6131    6056    5972    5828    5567    5067    4222    3010
    1514     -78   -1603   -2954   -4082   -4868   -5277   -5335   -5114   -4641
   -3837   -2856   -1931   -1267    -950    -849    -821    -831    -891    -840
    -586    -126     617    1536    2602    3813    5018    6110    6968    7558
    7919    8001    7797    7365    6706    5962    5290    4763    4448    4260
    4156    4044    3910    3784    3475    2933    2151    1232     248    -852
   -1926   -3026   -4065   -4907   -5759   -6534   -7134   -7625   -8117   -8717
   -9351  -10026  -10656  -11171  -11533  -11761  -11961  -12031  -11996  -12044
  -12173  -12267  -12330  -12215  -11949  -11733  -11480  -11115  -10670  -10253
   -9811   -9341   -8875   -8406   -8104   -8029   -8200   -8644   -9386  -10388
  -11668  -13236  -14872  -16377  -17600  -18386  -18666  -18544  -18013  -16979
  -15489  -13639  -11688   -9775   -7862   -5956   -3992   -2004      24    2174
    4329    6437    8536   10520   12211   13549   14496   14886   14684   14055
   13114   11937   10634    9316    8081    7069    6368    5928    5715    5661
    5788    5985    6090    6127    6078    5940    5612    5125    4562    3922
    3227    2477    1770    1175     778     700     996    1676    2724    3974
    5331    6802    8227    9511   10442   10888   10968   10763   10476   10215
    9919    9752    9796    9983   10274   10471   10550   10624   10711   10742
   10679   10728   10956   11345   11902   12632   13619   14744   15810   16763
   17664   18538   19240   19602   19536   19018   18036   16635   14904   12861
   10529    8070    5672    3412    1366    -410   -1849   -2764   -3151   -3132
   -2878   -2460   -1781    -926     149    1455    2758    3891    4723    5243
    5437    5288    4804    3964    2837    1532     192   -1118   -2411   -3628
   -4789   -5880   -6725   -7353   -7778   -7933   -8072   -8236   -8258   -8159
   -7946   -7611   -7088   -6360   -5492   -4497   -3408   -2354   -1452    -662
    -106     184     312     267     257     312     324     229     -25    -445
   -1152   -2102   -3352   -4981   -6793   -8601  -10224  -11505  -12309  -12687
  -12633  -12185  -11682  -11141  -10635  -10288  -10090  -10209  -10576  -11158
  -11946  -12840  -13862  -14914  -15983  -17035  -18049  -19012  -19795  -20392
  -20627  -20456  -20083  -19574  -19071  -18640  -18252  -18044  -18111  -18398
  -18862  -19355  -19835  -20293  -20662  -21092  -21448  -21614  -21599  -21270
  -20729  -20048  -19283  -18549  -17902  -17383  -17036  -16932  -16954  -16950
  -16923  -16710  -16168  -15325  -14194  -12957  -11713  -10545   -9588   -8792
   -8220   -7886   -7693   -7492   -7194   -6836   -6200   -5267   -4111   -2576
    -800    1261    3706    6311    9033   11799   14518   16926   18738   19949
   20520   20651   20462   19980   19286   18419   17515   16552   15537   14405
   13117   11727   10331    9085    7904    6926    6155    5460    4928    4346
    3706    3103    2569    2243    2034    1985    2186    2630    3252    3905
